ZipCode,City,County,State
1420,Fitchburg,Worcester,MA
1507,Charlton,Worcester,MA
1702,Framingham,Middlesex,MA
1950,Newburyport,Essex,MA
2113,Boston,Suffolk,MA
2131,Roslindale,Suffolk,MA
2150,Chelsea,Suffolk,MA
2155,Medford,Suffolk,MA
2215,Boston,Suffolk,MA
2421,Lexington,Middlesex,MA
2540,Falmouth,Barnstable,MA
4011,Brunswick,Cumberland,ME
4051,Lovell,Oxford,ME
5045,Fairlee,Orange,VT
6033,Glastonbury,Hartford,CT
6511,New Haven,New Haven,CT
6516,West Haven,New Haven,CT
6525,Woodbridge,New Haven,CT
6605,Bridgeport,Fairfield,CT
6776,New Milford,Litchfield,CT
6878,Riverside,Fairfield,CT
6901,Stamford,Fairfield,CT
7008,Carteret,Middlesex,NJ
8002,Cherry Hill,Camden,NJ
11218,Brooklyn,Kings,NY
14611,Rochester,Monroe,NY
19703,Claymont,New Castle,DE
19711,Newark,New Castle,DE
20008,Washington,District of Columbia,DC
20009,Washington,District of Columbia,DC
20015,Washington,District of Columbia,DC
20020,Washington,District of Columbia,DC
20194,Reston,Fairfax,VA
20723,Laurel,Howard,MD
20850,Rockville,Montgomery,MD
20905,Silver Spring,Montgomery,MD
21210,Baltimore,Baltimore City,MD
21218,Baltimore,Baltimore City,MD
21221,Essex,Baltimore,MD
21231,Baltimore,Baltimore City,MD
29615,Greer,Greenville,SC
30016,Covington,Newton,GA
30028,Cumming,Gwinnett,GA
30250,Lovejoy,Clayton,GA
30269,Peachtree City,Fayette,GA
30306,Atlanta,Fulton,GA
30309,Atlanta,Fulton,GA
30316,Atlanta,Fulton,GA
31707,Albany,Dougherty,GA
32043,Green Cove Springs,Clay,FL
32073,Orange Park,Clay,FL
32312,Tallahassee,Leon,FL
32536,Crestview,Okaloosa,FL
32773,Sanford,Seminole,FL
32832,Orlando,Orange,FL
33131,Miami,Miami-Dade,FL
33139,Miami Beach,Miami-Dade,FL
33173,Miami,Miami-Dade,FL
33176,Miami,Miami-Dade,FL
33180,Miami,Miami-Dade,FL
33411,Royal Palm Beach,Palm Beach,FL
33569,Riverview,Hillsborough,FL
33637,Temple Terrace,Hillsborough,FL
33647,Tampa,Hillsborough,FL
33708,Saint Petersburg,Pinellas,FL
33905,Fort Myers,Lee,FL
33907,Fort Myers,Lee,FL
35216,Birmingham,Jefferson,AL
35243,Birmingham,Jefferson,AL
36106,Montgomery,Montgomery,AL
36207,Anniston,Calhoun,AL
37143,Pegram,Cheatham,TN
40031,Lagrange,Oldham,KY
40175,Vine Grove,Hardin,KY
46038,Fishers,Hamilton,IN
46131,Franklin,Johnson,IN
46201,Indianapolis,Marion,IN
46235,Indianapolis,Marion,IN
46324,Hammond,Lake,IN
46733,Decatur,Adams,IN
47112,Corydon,Harrison,IN
47725,Evansville,Vanderburgh,IN
48104,Ann Arbor,Washtenaw,MI
48202,Detroit,Wayne,MI
48323,West Bloomfield Township,Oakland,MI
48451,Linden,Genesee,MI
49406,Douglas,Allegan,MI
49441,Muskegon,Muskegon,MI
49503,Grand Rapids,Kent,MI
50312,Des Moines,Polk,IA
51536,Hancock,Pottawattamie,IA
52761,Muscatine,Muscatine,IA
54981,Waupaca,Waupaca,WI
56386,Wahkon,Mille Lacs,MN
56401,Brainerd,Crow Wing,MN
60016,Des Plaines,Cook,IL
60062,Northbrook,Cook,IL
60076,Skokie,Cook,IL
60090,Wheeling,Cook,IL
60203,Evanston,Cook,IL
60608,Chicago,Cook,IL
60610,Chicago,Cook,IL
60611,Chicago,Cook,IL
60614,Chicago,Cook,IL
60617,Chicago,Cook,IL
60622,Chicago,Cook,IL
60623,Chicago,Cook,IL
60659,Chicago,Cook,IL
61001,Apple River,Jo Daviess,IL
61081,Sterling,Whiteside,IL
61745,Heyworth,McLean,IL
61802,Urbana,Champaign,IL
62673,Oakford,Menard,IL
62822,Christopher,Franklin,IL
66215,Lenexa,Johnson,KS
67205,Wichita,Sedgwick,KS
67206,Wichita,Sedgwick,KS
67210,Wichita,Sedgwick,KS
67217,Wichita,Sedgwick,KS
70508,Lafayette,Lafayette Parish,LA
70809,Baton Rouge,East Baton Rouge,LA
72846,Lamar,Johnson,AR
76132,Fort Worth,Tarrant,TX
76210,Argyle,Denton,TX
78006,Boerne,Kendall,TX
79938,El Paso,El Paso,TX
80014,Aurora,Arapahoe,CO
80030,Westminster,Adams,CO
80126,Highlands Ranch,Douglas,CO
80130,Littleton,Douglas,CO
80210,Denver,Denver,CO
80228,Lakewood,Jefferson,CO
80230,Denver,Denver,CO
80241,Thornton,Adams,CO
80302,Boulder,Boulder,CO
80303,Boulder,Boulder,CO
80504,Longmont,Weld,CO
80516,Erie,Boulder,CO
80634,Greeley,Weld,CO
80820,Guffey,Park,CO
80907,Colorado Springs,El Paso,CO
80910,Colorado Springs,El Paso,CO
80913,Fort Carson,El Paso,CO
80915,Colorado Springs,El Paso,CO
80919,Colorado Springs,El Paso,CO
81001,Pueblo,Pueblo,CO
81235,Lake City,Hinsdale,CO
81301,Durango,La Plata,CO
81623,Carbondale,Garfield,CO
81631,Eagle,Eagle,CO
83333,Hailey,Blaine,ID
83440,Rexburg,Madison,ID
83617,Emmett,Gem,ID
83642,Meridian,Ada,ID
83702,Boise,Ada,ID
83705,Boise,Ada,ID
83814,Coeur D Alene,Kootenai,ID
83835,Hayden,Kootenai,ID
83845,Moyie Springs,Boundary,ID
83854,Post Falls,Kootenai,ID
84774,Toquerville,Washington,UT
85019,Phoenix,Maricopa,AZ
85032,Phoenix,Maricopa,AZ
85044,Phoenix,Maricopa,AZ
85086,Anthem,Maricopa,AZ
85122,Casa Grande,Pinal,AZ
85132,Florence,Pinal,AZ
85142,Queen Creek,Maricopa,AZ
85210,Mesa,Maricopa,AZ
85225,Chandler,Maricopa,AZ
85226,Chandler,Maricopa,AZ
85301,Glendale,Maricopa,AZ
85306,Glendale,Maricopa,AZ
85308,Glendale,Maricopa,AZ
85326,Buckeye,Maricopa,AZ
85335,El Mirage,Maricopa,AZ
85349,San Luis,Yuma,AZ
85350,Somerton,Yuma,AZ
85351,Sun City,Maricopa,AZ
85364,Yuma,Yuma,AZ
85367,Yuma,Yuma,AZ
85374,Surprise,Maricopa,AZ
85379,Surprise,Maricopa,AZ
85382,Peoria,Maricopa,AZ
85541,Basin,Gila,AZ
85718,Tucson,Pima,AZ
89031,Las Vegas,Clark,NV
89052,Henderson,Clark,NV
89130,Las Vegas,Clark,NV
89178,Las Vegas,Clark,NV
89349,San Luis,Yuma,AZ
89431,Sparks,Washoe,NV
89448,Zephyr Cove,Douglas,NV
89449,Stateline,Douglas,NV
89450,Incline Village,Washoe,NV
89451,Incline Village,Washoe,NV
89460,Gardnerville,Douglas,NV
89523,Reno,Washoe,NV
89533,Reno,Washoe,NV
89703,Carson City,Carson City,NV
90001,Los Angeles,Los Angeles,CA
90002,Los Angeles,Los Angeles,CA
90003,Los Angeles,Los Angeles,CA
90004,Los Angeles,Los Angeles,CA
90005,Los Angeles,Los Angeles,CA
90006,Los Angeles,Los Angeles,CA
90007,Los Angeles,Los Angeles,CA
90008,Los Angeles,Los Angeles,CA
90009,Los Angeles,Los Angeles,CA
90010,Los Angeles,Los Angeles,CA
90011,Los Angeles,Los Angeles,CA
90012,Los Angeles,Los Angeles,CA
90013,Los Angeles,Los Angeles,CA
90014,Los Angeles,Los Angeles,CA
90015,Los Angeles,Los Angeles,CA
90016,Los Angeles,Los Angeles,CA
90017,Los Angeles,Los Angeles,CA
90018,Los Angeles,Los Angeles,CA
90019,Los Angeles,Los Angeles,CA
90020,Los Angeles,Los Angeles,CA
90021,Los Angeles,Los Angeles,CA
90022,Los Angeles,Los Angeles,CA
90023,Los Angeles,Los Angeles,CA
90024,Los Angeles,Los Angeles,CA
90025,Los Angeles,Los Angeles,CA
90026,Los Angeles,Los Angeles,CA
90027,Los Angeles,Los Angeles,CA
90028,Los Angeles,Los Angeles,CA
90029,Los Angeles,Los Angeles,CA
90030,Los Angeles,Los Angeles,CA
90031,Los Angeles,Los Angeles,CA
90032,Los Angeles,Los Angeles,CA
90033,Los Angeles,Los Angeles,CA
90034,Los Angeles,Los Angeles,CA
90035,Los Angeles,Los Angeles,CA
90036,Los Angeles,Los Angeles,CA
90037,Los Angeles,Los Angeles,CA
90038,Los Angeles,Los Angeles,CA
90039,Los Angeles,Los Angeles,CA
90040,Los Angeles,Los Angeles,CA
90041,Los Angeles,Los Angeles,CA
90042,Los Angeles,Los Angeles,CA
90043,Los Angeles,Los Angeles,CA
90044,Los Angeles,Los Angeles,CA
90045,Los Angeles,Los Angeles,CA
90046,Los Angeles,Los Angeles,CA
90047,Los Angeles,Los Angeles,CA
90048,Los Angeles,Los Angeles,CA
90049,Los Angeles,Los Angeles,CA
90050,Los Angeles,Los Angeles,CA
90051,Los Angeles,Los Angeles,CA
90052,Los Angeles,Los Angeles,CA
90053,Los Angeles,Los Angeles,CA
90054,Los Angeles,Los Angeles,CA
90055,Los Angeles,Los Angeles,CA
90056,Los Angeles,Los Angeles,CA
90057,Los Angeles,Los Angeles,CA
90058,Los Angeles,Los Angeles,CA
90059,Los Angeles,Los Angeles,CA
90060,Los Angeles,Los Angeles,CA
90061,Los Angeles,Los Angeles,CA
90062,Los Angeles,Los Angeles,CA
90063,Los Angeles,Los Angeles,CA
90064,Los Angeles,Los Angeles,CA
90065,Los Angeles,Los Angeles,CA
90066,Los Angeles,Los Angeles,CA
90067,Los Angeles,Los Angeles,CA
90068,Los Angeles,Los Angeles,CA
90069,West Hollywood,Los Angeles,CA
90070,Los Angeles,Los Angeles,CA
90071,Los Angeles,Los Angeles,CA
90072,Los Angeles,Los Angeles,CA
90073,Los Angeles,Los Angeles,CA
90074,Los Angeles,Los Angeles,CA
90075,Los Angeles,Los Angeles,CA
90076,Los Angeles,Los Angeles,CA
90077,Los Angeles,Los Angeles,CA
90078,Los Angeles,Los Angeles,CA
90079,Los Angeles,Los Angeles,CA
90080,Los Angeles,Los Angeles,CA
90081,Los Angeles,Los Angeles,CA
90082,Los Angeles,Los Angeles,CA
90083,Los Angeles,Los Angeles,CA
90084,Los Angeles,Los Angeles,CA
90086,Los Angeles,Los Angeles,CA
90087,Los Angeles,Los Angeles,CA
90088,Los Angeles,Los Angeles,CA
90089,Los Angeles,Los Angeles,CA
90091,Los Angeles,Los Angeles,CA
90093,Los Angeles,Los Angeles,CA
90094,Los Angeles,Los Angeles,CA
90095,Los Angeles,Los Angeles,CA
90096,Los Angeles,Los Angeles,CA
90097,Los Angeles,Los Angeles,CA
90099,Los Angeles,Los Angeles,CA
90101,Los Angeles,Los Angeles,CA
90102,Los Angeles,Los Angeles,CA
90103,Los Angeles,Los Angeles,CA
90174,Los Angeles,Los Angeles,CA
90185,Los Angeles,Los Angeles,CA
90201,Bell,Los Angeles,CA
90202,Bell Gardens,Los Angeles,CA
90209,Beverly Hills,Los Angeles,CA
90210,Beverly Hills,Los Angeles,CA
90211,Beverly Hills,Los Angeles,CA
90212,Beverly Hills,Los Angeles,CA
90213,Beverly Hills,Los Angeles,CA
90220,Compton,Los Angeles,CA
90221,Compton,Los Angeles,CA
90222,Compton,Los Angeles,CA
90223,Compton,Los Angeles,CA
90224,Compton,Los Angeles,CA
90230,Culver City,Los Angeles,CA
90231,Culver City,Los Angeles,CA
90232,Culver City,Los Angeles,CA
90233,Culver City,Los Angeles,CA
90239,Downey,Los Angeles,CA
90240,Downey,Los Angeles,CA
90241,Downey,Los Angeles,CA
90242,Downey,Los Angeles,CA
90245,El Segundo,Los Angeles,CA
90247,Gardena,Los Angeles,CA
90248,Gardena,Los Angeles,CA
90249,Gardena,Los Angeles,CA
90250,Hawthorne,Los Angeles,CA
90251,Hawthorne,Los Angeles,CA
90254,Hermosa Beach,Los Angeles,CA
90255,Huntington Park,Los Angeles,CA
90260,Lawndale,Los Angeles,CA
90261,Lawndale,Los Angeles,CA
90262,Lynwood,Los Angeles,CA
90263,Malibu,Los Angeles,CA
90264,Malibu,Los Angeles,CA
90265,Malibu,Los Angeles,CA
90266,Manhattan Beach,Los Angeles,CA
90267,Manhattan Beach,Los Angeles,CA
90270,Maywood,Los Angeles,CA
90272,Pacific Palisades,Los Angeles,CA
90274,Palos Verdes Peninsula,Los Angeles,CA
90275,Rancho Palos Verdes,Los Angeles,CA
90277,Redondo Beach,Los Angeles,CA
90278,Redondo Beach,Los Angeles,CA
90280,South Gate,Los Angeles,CA
90290,Topanga,Los Angeles,CA
90291,Venice,Los Angeles,CA
90292,Marina Del Rey,Los Angeles,CA
90293,Playa Del Rey,Los Angeles,CA
90294,Venice,Los Angeles,CA
90295,Marina Del Rey,Los Angeles,CA
90296,Playa Del Rey,Los Angeles,CA
90301,Inglewood,Los Angeles,CA
90302,Inglewood,Los Angeles,CA
90303,Inglewood,Los Angeles,CA
90304,Inglewood,Los Angeles,CA
90305,Inglewood,Los Angeles,CA
90306,Inglewood,Los Angeles,CA
90307,Inglewood,Los Angeles,CA
90308,Inglewood,Los Angeles,CA
90309,Inglewood,Los Angeles,CA
90310,Inglewood,Los Angeles,CA
90311,Inglewood,Los Angeles,CA
90312,Inglewood,Los Angeles,CA
90313,Inglewood,Los Angeles,CA
90397,Inglewood,Los Angeles,CA
90398,Inglewood,Los Angeles,CA
90401,Santa Monica,Los Angeles,CA
90402,Santa Monica,Los Angeles,CA
90403,Santa Monica,Los Angeles,CA
90404,Santa Monica,Los Angeles,CA
90405,Santa Monica,Los Angeles,CA
90406,Santa Monica,Los Angeles,CA
90407,Santa Monica,Los Angeles,CA
90408,Santa Monica,Los Angeles,CA
90409,Santa Monica,Los Angeles,CA
90410,Santa Monica,Los Angeles,CA
90411,Santa Monica,Los Angeles,CA
90501,Torrance,Los Angeles,CA
90502,Torrance,Los Angeles,CA
90503,Torrance,Los Angeles,CA
90504,Torrance,Los Angeles,CA
90505,Torrance,Los Angeles,CA
90506,Torrance,Los Angeles,CA
90507,Torrance,Los Angeles,CA
90508,Torrance,Los Angeles,CA
90509,Torrance,Los Angeles,CA
90510,Torrance,Los Angeles,CA
90601,Whittier,Los Angeles,CA
90602,Whittier,Los Angeles,CA
90603,Whittier,Los Angeles,CA
90604,Whittier,Los Angeles,CA
90605,Whittier,Los Angeles,CA
90606,Whittier,Los Angeles,CA
90607,Whittier,Los Angeles,CA
90608,Whittier,Los Angeles,CA
90609,Whittier,Los Angeles,CA
90610,Whittier,Los Angeles,CA
90612,Whittier,Los Angeles,CA
90620,Buena Park,Orange,CA
90621,Buena Park,Orange,CA
90622,Buena Park,Orange,CA
90623,La Palma,Orange,CA
90624,Buena Park,Orange,CA
90630,Cypress,Orange,CA
90631,La Habra,Orange,CA
90632,La Habra,Orange,CA
90633,La Habra,Orange,CA
90637,La Mirada,Los Angeles,CA
90638,La Mirada,Los Angeles,CA
90639,La Mirada,Los Angeles,CA
90640,Montebello,Los Angeles,CA
90650,Norwalk,Los Angeles,CA
90651,Norwalk,Los Angeles,CA
90652,Norwalk,Los Angeles,CA
90659,Norwalk,Los Angeles,CA
90660,Pico Rivera,Los Angeles,CA
90661,Pico Rivera,Los Angeles,CA
90662,Pico Rivera,Los Angeles,CA
90665,Pico Rivera,Los Angeles,CA
90670,Santa Fe Springs,Los Angeles,CA
90671,Santa Fe Springs,Los Angeles,CA
90680,Stanton,Orange,CA
90701,Artesia,Los Angeles,CA
90702,Artesia,Los Angeles,CA
90703,Cerritos,Los Angeles,CA
90704,Avalon,Los Angeles,CA
90706,Bellflower,Los Angeles,CA
90707,Bellflower,Los Angeles,CA
90710,Harbor City,Los Angeles,CA
90711,Lakewood,Los Angeles,CA
90712,Lakewood,Los Angeles,CA
90713,Lakewood,Los Angeles,CA
90714,Lakewood,Los Angeles,CA
90715,Lakewood,Los Angeles,CA
90716,Hawaiian Gardens,Los Angeles,CA
90717,Lomita,Los Angeles,CA
90720,Los Alamitos,Orange,CA
90721,Los Alamitos,Orange,CA
90723,Paramount,Los Angeles,CA
90731,San Pedro,Los Angeles,CA
90732,San Pedro,Los Angeles,CA
90733,San Pedro,Los Angeles,CA
90734,San Pedro,Los Angeles,CA
90740,Seal Beach,Orange,CA
90742,Sunset Beach,Orange,CA
90743,Surfside,Orange,CA
90744,Wilmington,Los Angeles,CA
90745,Carson,Los Angeles,CA
90746,Carson,Los Angeles,CA
90747,Carson,Los Angeles,CA
90748,Wilmington,Los Angeles,CA
90749,Carson,Los Angeles,CA
90755,Signal Hill,Los Angeles,CA
90801,Long Beach,Los Angeles,CA
90802,Long Beach,Los Angeles,CA
90803,Long Beach,Los Angeles,CA
90804,Long Beach,Los Angeles,CA
90805,Long Beach,Los Angeles,CA
90806,Long Beach,Los Angeles,CA
90807,Long Beach,Los Angeles,CA
90808,Long Beach,Los Angeles,CA
90809,Long Beach,Los Angeles,CA
90810,Long Beach,Los Angeles,CA
90813,Long Beach,Los Angeles,CA
90814,Long Beach,Los Angeles,CA
90815,Long Beach,Los Angeles,CA
90822,Long Beach,Los Angeles,CA
90831,Long Beach,Los Angeles,CA
90832,Long Beach,Los Angeles,CA
90833,Long Beach,Los Angeles,CA
90834,Long Beach,Los Angeles,CA
90835,Long Beach,Los Angeles,CA
90840,Long Beach,Los Angeles,CA
90842,Long Beach,Los Angeles,CA
90844,Long Beach,Los Angeles,CA
90845,Long Beach,Los Angeles,CA
90846,Long Beach,Los Angeles,CA
90847,Long Beach,Los Angeles,CA
90848,Long Beach,Los Angeles,CA
90853,Long Beach,Los Angeles,CA
90888,Long Beach,Los Angeles,CA
90899,Long Beach,Los Angeles,CA
91001,Altadena,Los Angeles,CA
91003,Altadena,Los Angeles,CA
91006,Arcadia,Los Angeles,CA
91007,Arcadia,Los Angeles,CA
91009,Duarte,Los Angeles,CA
91010,Duarte,Los Angeles,CA
91011,La Canada Flintridge,Los Angeles,CA
91012,La Canada Flintridge,Los Angeles,CA
91016,Monrovia,Los Angeles,CA
91017,Monrovia,Los Angeles,CA
91020,Montrose,Los Angeles,CA
91021,Montrose,Los Angeles,CA
91023,Mount Wilson,Los Angeles,CA
91024,Sierra Madre,Los Angeles,CA
91025,Sierra Madre,Los Angeles,CA
91030,South Pasadena,Los Angeles,CA
91031,South Pasadena,Los Angeles,CA
91040,Sunland,Los Angeles,CA
91041,Sunland,Los Angeles,CA
91042,Tujunga,Los Angeles,CA
91043,Tujunga,Los Angeles,CA
91046,Verdugo City,Los Angeles,CA
91050,Pasadena,Los Angeles,CA
91051,Pasadena,Los Angeles,CA
91066,Arcadia,Los Angeles,CA
91077,Arcadia,Los Angeles,CA
91101,Pasadena,Los Angeles,CA
91102,Pasadena,Los Angeles,CA
91103,Pasadena,Los Angeles,CA
91104,Pasadena,Los Angeles,CA
91105,Pasadena,Los Angeles,CA
91106,Pasadena,Los Angeles,CA
91107,Pasadena,Los Angeles,CA
91108,San Marino,Los Angeles,CA
91109,Pasadena,Los Angeles,CA
91110,Pasadena,Los Angeles,CA
91114,Pasadena,Los Angeles,CA
91115,Pasadena,Los Angeles,CA
91116,Pasadena,Los Angeles,CA
91117,Pasadena,Los Angeles,CA
91118,San Marino,Los Angeles,CA
91121,Pasadena,Los Angeles,CA
91123,Pasadena,Los Angeles,CA
91124,Pasadena,Los Angeles,CA
91125,Pasadena,Los Angeles,CA
91126,Pasadena,Los Angeles,CA
91129,Pasadena,Los Angeles,CA
91131,Pasadena,Los Angeles,CA
91175,Pasadena,Los Angeles,CA
91182,Pasadena,Los Angeles,CA
91184,Pasadena,Los Angeles,CA
91185,Pasadena,Los Angeles,CA
91186,Pasadena,Los Angeles,CA
91187,Pasadena,Los Angeles,CA
91188,Pasadena,Los Angeles,CA
91189,Pasadena,Los Angeles,CA
91191,Pasadena,Los Angeles,CA
91201,Glendale,Los Angeles,CA
91202,Glendale,Los Angeles,CA
91203,Glendale,Los Angeles,CA
91204,Glendale,Los Angeles,CA
91205,Glendale,Los Angeles,CA
91206,Glendale,Los Angeles,CA
91207,Glendale,Los Angeles,CA
91208,Glendale,Los Angeles,CA
91209,Glendale,Los Angeles,CA
91210,Glendale,Los Angeles,CA
91214,La Crescenta,Los Angeles,CA
91221,Glendale,Los Angeles,CA
91222,Glendale,Los Angeles,CA
91224,La Crescenta,Los Angeles,CA
91225,Glendale,Los Angeles,CA
91226,Glendale,Los Angeles,CA
91301,Agoura Hills,Los Angeles,CA
91302,Calabasas,Los Angeles,CA
91303,Canoga Park,Los Angeles,CA
91304,Canoga Park,Los Angeles,CA
91305,Canoga Park,Los Angeles,CA
91306,Winnetka,Los Angeles,CA
91307,West Hills,Los Angeles,CA
91308,West Hills,Los Angeles,CA
91309,Canoga Park,Los Angeles,CA
91310,Castaic,Los Angeles,CA
91311,Chatsworth,Los Angeles,CA
91312,Chatsworth,Los Angeles,CA
91313,Chatsworth,Los Angeles,CA
91316,Encino,Los Angeles,CA
91319,Newbury Park,Ventura,CA
91320,Newbury Park,Ventura,CA
91321,Newhall,Los Angeles,CA
91322,Newhall,Los Angeles,CA
91324,Northridge,Los Angeles,CA
91325,Northridge,Los Angeles,CA
91326,Northridge,Los Angeles,CA
91327,Northridge,Los Angeles,CA
91328,Northridge,Los Angeles,CA
91329,Northridge,Los Angeles,CA
91330,Northridge,Los Angeles,CA
91331,Pacoima,Los Angeles,CA
91333,Pacoima,Los Angeles,CA
91334,Pacoima,Los Angeles,CA
91335,Reseda,Los Angeles,CA
91337,Reseda,Los Angeles,CA
91340,San Fernando,Los Angeles,CA
91341,San Fernando,Los Angeles,CA
91342,Sylmar,Los Angeles,CA
91343,North Hills,Los Angeles,CA
91344,Granada Hills,Los Angeles,CA
91345,Mission Hills,Los Angeles,CA
91346,Mission Hills,Los Angeles,CA
91350,Santa Clarita,Los Angeles,CA
91351,Canyon Country,Los Angeles,CA
91352,Sun Valley,Los Angeles,CA
91353,Sun Valley,Los Angeles,CA
91354,Valencia,Los Angeles,CA
91355,Valencia,Los Angeles,CA
91356,Tarzana,Los Angeles,CA
91357,Tarzana,Los Angeles,CA
91358,Thousand Oaks,Ventura,CA
91359,Westlake Village,Ventura,CA
91360,Thousand Oaks,Ventura,CA
91361,Westlake Village,Ventura,CA
91362,Thousand Oaks,Ventura,CA
91363,Westlake Village,Los Angeles,CA
91364,Woodland Hills,Los Angeles,CA
91365,Woodland Hills,Los Angeles,CA
91367,Woodland Hills,Los Angeles,CA
91371,Woodland Hills,Los Angeles,CA
91372,Calabasas,Los Angeles,CA
91376,Agoura Hills,Los Angeles,CA
91377,Oak Park,Ventura,CA
91380,Santa Clarita,Los Angeles,CA
91381,Stevenson Ranch,Los Angeles,CA
91382,Santa Clarita,Los Angeles,CA
91383,Santa Clarita,Los Angeles,CA
91384,Castaic,Los Angeles,CA
91385,Valencia,Los Angeles,CA
91386,Canyon Country,Los Angeles,CA
91387,Canyon Country,Los Angeles,CA
91388,Van Nuys,Los Angeles,CA
91390,Santa Clarita,Los Angeles,CA
91392,Sylmar,Los Angeles,CA
91393,North Hills,Los Angeles,CA
91394,Granada Hills,Los Angeles,CA
91395,Mission Hills,Los Angeles,CA
91396,Winnetka,Los Angeles,CA
91399,Woodland Hills,Los Angeles,CA
91401,Van Nuys,Los Angeles,CA
91402,Panorama City,Los Angeles,CA
91403,Sherman Oaks,Los Angeles,CA
91404,Van Nuys,Los Angeles,CA
91405,Van Nuys,Los Angeles,CA
91406,Van Nuys,Los Angeles,CA
91407,Van Nuys,Los Angeles,CA
91408,Van Nuys,Los Angeles,CA
91409,Van Nuys,Los Angeles,CA
91410,Van Nuys,Los Angeles,CA
91411,Van Nuys,Los Angeles,CA
91412,Panorama City,Los Angeles,CA
91413,Sherman Oaks,Los Angeles,CA
91416,Encino,Los Angeles,CA
91423,Sherman Oaks,Los Angeles,CA
91426,Encino,Los Angeles,CA
91436,Encino,Los Angeles,CA
91470,Van Nuys,Los Angeles,CA
91482,Van Nuys,Los Angeles,CA
91495,Sherman Oaks,Los Angeles,CA
91496,Van Nuys,Los Angeles,CA
91497,Van Nuys,Los Angeles,CA
91499,Van Nuys,Los Angeles,CA
91501,Burbank,Los Angeles,CA
91502,Burbank,Los Angeles,CA
91503,Burbank,Los Angeles,CA
91504,Burbank,Los Angeles,CA
91505,Burbank,Los Angeles,CA
91506,Burbank,Los Angeles,CA
91507,Burbank,Los Angeles,CA
91508,Burbank,Los Angeles,CA
91510,Burbank,Los Angeles,CA
91521,Burbank,Los Angeles,CA
91522,Burbank,Los Angeles,CA
91523,Burbank,Los Angeles,CA
91526,Burbank,Los Angeles,CA
91601,North Hollywood,Los Angeles,CA
91602,North Hollywood,Los Angeles,CA
91603,North Hollywood,Los Angeles,CA
91604,Studio City,Los Angeles,CA
91605,North Hollywood,Los Angeles,CA
91606,North Hollywood,Los Angeles,CA
91607,Valley Village,Los Angeles,CA
91608,Universal City,Los Angeles,CA
91609,North Hollywood,Los Angeles,CA
91610,Toluca Lake,Los Angeles,CA
91611,North Hollywood,Los Angeles,CA
91612,North Hollywood,Los Angeles,CA
91614,Studio City,Los Angeles,CA
91615,North Hollywood,Los Angeles,CA
91616,North Hollywood,Los Angeles,CA
91617,Valley Village,Los Angeles,CA
91618,North Hollywood,Los Angeles,CA
91701,Rancho Cucamonga,San Bernardino,CA
91702,Azusa,Los Angeles,CA
91706,Baldwin Park,Los Angeles,CA
91708,Chino,San Bernardino,CA
91709,Chino Hills,San Bernardino,CA
91710,Chino,San Bernardino,CA
91711,Claremont,Los Angeles,CA
91714,City Of Industry,Los Angeles,CA
91715,City Of Industry,Los Angeles,CA
91716,City Of Industry,Los Angeles,CA
91722,Covina,Los Angeles,CA
91723,Covina,Los Angeles,CA
91724,Covina,Los Angeles,CA
91729,Rancho Cucamonga,San Bernardino,CA
91730,Rancho Cucamonga,San Bernardino,CA
91731,El Monte,Los Angeles,CA
91732,El Monte,Los Angeles,CA
91733,South El Monte,Los Angeles,CA
91734,El Monte,Los Angeles,CA
91735,El Monte,Los Angeles,CA
91737,Rancho Cucamonga,San Bernardino,CA
91739,Rancho Cucamonga,San Bernardino,CA
91740,Glendora,Los Angeles,CA
91741,Glendora,Los Angeles,CA
91743,Guasti,San Bernardino,CA
91744,La Puente,Los Angeles,CA
91745,Hacienda Heights,Los Angeles,CA
91746,La Puente,Los Angeles,CA
91747,La Puente,Los Angeles,CA
91748,Rowland Heights,Los Angeles,CA
91749,La Puente,Los Angeles,CA
91750,La Verne,Los Angeles,CA
91752,Mira Loma,Riverside,CA
91754,Monterey Park,Los Angeles,CA
91755,Monterey Park,Los Angeles,CA
91756,Monterey Park,Los Angeles,CA
91758,Ontario,San Bernardino,CA
91759,Mt Baldy,Los Angeles,CA
91761,Ontario,San Bernardino,CA
91762,Ontario,San Bernardino,CA
91763,Montclair,San Bernardino,CA
91764,Ontario,San Bernardino,CA
91765,Diamond Bar,Los Angeles,CA
91766,Pomona,Los Angeles,CA
91767,Pomona,Los Angeles,CA
91768,Pomona,Los Angeles,CA
91769,Pomona,Los Angeles,CA
91770,Rosemead,Los Angeles,CA
91771,Rosemead,Los Angeles,CA
91772,Rosemead,Los Angeles,CA
91773,San Dimas,Los Angeles,CA
91775,San Gabriel,Los Angeles,CA
91776,San Gabriel,Los Angeles,CA
91778,San Gabriel,Los Angeles,CA
91780,Temple City,Los Angeles,CA
91784,Upland,San Bernardino,CA
91785,Upland,San Bernardino,CA
91786,Upland,San Bernardino,CA
91788,Walnut,Los Angeles,CA
91789,Walnut,Los Angeles,CA
91790,West Covina,Los Angeles,CA
91791,West Covina,Los Angeles,CA
91792,West Covina,Los Angeles,CA
91793,West Covina,Los Angeles,CA
91795,Walnut,Los Angeles,CA
91797,Pomona,Los Angeles,CA
91798,Ontario,San Bernardino,CA
91799,Pomona,Los Angeles,CA
91801,Alhambra,Los Angeles,CA
91802,Alhambra,Los Angeles,CA
91803,Alhambra,Los Angeles,CA
91804,Alhambra,Los Angeles,CA
91841,Alhambra,Los Angeles,CA
91896,Alhambra,Los Angeles,CA
91899,Alhambra,Los Angeles,CA
91901,Alpine,San Diego,CA
91902,Bonita,San Diego,CA
91903,Alpine,San Diego,CA
91905,Boulevard,San Diego,CA
91906,Campo,San Diego,CA
91908,Bonita,San Diego,CA
91909,Chula Vista,San Diego,CA
91910,Chula Vista,San Diego,CA
91911,Chula Vista,San Diego,CA
91912,Chula Vista,San Diego,CA
91913,Chula Vista,San Diego,CA
91914,Chula Vista,San Diego,CA
91915,Chula Vista,San Diego,CA
91916,Descanso,San Diego,CA
91917,Dulzura,San Diego,CA
91921,Chula Vista,San Diego,CA
91931,Guatay,San Diego,CA
91932,Imperial Beach,San Diego,CA
91933,Imperial Beach,San Diego,CA
91934,Jacumba,San Diego,CA
91935,Jamul,San Diego,CA
91941,La Mesa,San Diego,CA
91942,La Mesa,San Diego,CA
91943,La Mesa,San Diego,CA
91944,La Mesa,San Diego,CA
91945,Lemon Grove,San Diego,CA
91946,Lemon Grove,San Diego,CA
91947,Lincoln Acres,San Diego,CA
91948,Mount Laguna,San Diego,CA
91950,National City,San Diego,CA
91951,National City,San Diego,CA
91962,Pine Valley,San Diego,CA
91963,Potrero,San Diego,CA
91976,Spring Valley,San Diego,CA
91977,Spring Valley,San Diego,CA
91978,Spring Valley,San Diego,CA
91979,Spring Valley,San Diego,CA
91980,Tecate,San Diego,CA
91987,Tecate,San Diego,CA
91990,Potrero,San Diego,CA
92003,Bonsall,San Diego,CA
92004,Borrego Springs,San Diego,CA
92007,Cardiff By The Sea,San Diego,CA
92008,Carlsbad,San Diego,CA
92009,Carlsbad,San Diego,CA
92010,Carlsbad,San Diego,CA
92011,Carlsbad,San Diego,CA
92013,Carlsbad,San Diego,CA
92014,Del Mar,San Diego,CA
92018,Carlsbad,San Diego,CA
92019,El Cajon,San Diego,CA
92020,El Cajon,San Diego,CA
92021,El Cajon,San Diego,CA
92022,El Cajon,San Diego,CA
92023,Encinitas,San Diego,CA
92024,Encinitas,San Diego,CA
92025,Escondido,San Diego,CA
92026,Escondido,San Diego,CA
92027,Escondido,San Diego,CA
92028,Fallbrook,San Diego,CA
92029,Escondido,San Diego,CA
92030,Escondido,San Diego,CA
92033,Escondido,San Diego,CA
92036,Julian,San Diego,CA
92037,La Jolla,San Diego,CA
92038,La Jolla,San Diego,CA
92039,La Jolla,San Diego,CA
92040,Lakeside,San Diego,CA
92046,Escondido,San Diego,CA
92049,Oceanside,San Diego,CA
92051,Oceanside,San Diego,CA
92052,Oceanside,San Diego,CA
92054,Oceanside,San Diego,CA
92055,Camp Pendleton,San Diego,CA
92056,Oceanside,San Diego,CA
92057,Oceanside,San Diego,CA
92058,Oceanside,San Diego,CA
92059,Pala,San Diego,CA
92060,Palomar Mountain,San Diego,CA
92061,Pauma Valley,San Diego,CA
92064,Poway,San Diego,CA
92065,Ramona,San Diego,CA
92066,Ranchita,San Diego,CA
92067,Rancho Santa Fe,San Diego,CA
92068,San Luis Rey,San Diego,CA
92069,San Marcos,San Diego,CA
92070,Santa Ysabel,San Diego,CA
92071,Santee,San Diego,CA
92072,Santee,San Diego,CA
92074,Poway,San Diego,CA
92075,Solana Beach,San Diego,CA
92078,San Marcos,San Diego,CA
92079,San Marcos,San Diego,CA
92081,Vista,San Diego,CA
92082,Valley Center,San Diego,CA
92083,Vista,San Diego,CA
92084,Vista,San Diego,CA
92085,Vista,San Diego,CA
92086,Warner Springs,San Diego,CA
92088,Fallbrook,San Diego,CA
92090,El Cajon,San Diego,CA
92091,Rancho Santa Fe,San Diego,CA
92092,La Jolla,San Diego,CA
92093,La Jolla,San Diego,CA
92096,San Marcos,San Diego,CA
92101,San Diego,San Diego,CA
92102,San Diego,San Diego,CA
92103,San Diego,San Diego,CA
92104,San Diego,San Diego,CA
92105,San Diego,San Diego,CA
92106,San Diego,San Diego,CA
92107,San Diego,San Diego,CA
92108,San Diego,San Diego,CA
92109,San Diego,San Diego,CA
92110,San Diego,San Diego,CA
92111,San Diego,San Diego,CA
92112,San Diego,San Diego,CA
92113,San Diego,San Diego,CA
92114,San Diego,San Diego,CA
92115,San Diego,San Diego,CA
92116,San Diego,San Diego,CA
92117,San Diego,San Diego,CA
92118,Coronado,San Diego,CA
92119,San Diego,San Diego,CA
92120,San Diego,San Diego,CA
92121,San Diego,San Diego,CA
92122,San Diego,San Diego,CA
92123,San Diego,San Diego,CA
92124,San Diego,San Diego,CA
92126,San Diego,San Diego,CA
92127,San Diego,San Diego,CA
92128,San Diego,San Diego,CA
92129,San Diego,San Diego,CA
92130,San Diego,San Diego,CA
92131,San Diego,San Diego,CA
92132,San Diego,San Diego,CA
92133,San Diego,San Diego,CA
92134,San Diego,San Diego,CA
92135,San Diego,San Diego,CA
92136,San Diego,San Diego,CA
92137,San Diego,San Diego,CA
92138,San Diego,San Diego,CA
92139,San Diego,San Diego,CA
92140,San Diego,San Diego,CA
92142,San Diego,San Diego,CA
92143,San Ysidro,San Diego,CA
92145,San Diego,San Diego,CA
92147,San Diego,San Diego,CA
92149,San Diego,San Diego,CA
92150,San Diego,San Diego,CA
92152,San Diego,San Diego,CA
92153,San Diego,San Diego,CA
92154,San Diego,San Diego,CA
92155,San Diego,San Diego,CA
92158,San Diego,San Diego,CA
92159,San Diego,San Diego,CA
92160,San Diego,San Diego,CA
92161,San Diego,San Diego,CA
92162,San Diego,San Diego,CA
92163,San Diego,San Diego,CA
92164,San Diego,San Diego,CA
92165,San Diego,San Diego,CA
92166,San Diego,San Diego,CA
92167,San Diego,San Diego,CA
92168,San Diego,San Diego,CA
92169,San Diego,San Diego,CA
92170,San Diego,San Diego,CA
92171,San Diego,San Diego,CA
92172,San Diego,San Diego,CA
92173,San Ysidro,San Diego,CA
92174,San Diego,San Diego,CA
92175,San Diego,San Diego,CA
92176,San Diego,San Diego,CA
92177,San Diego,San Diego,CA
92178,Coronado,San Diego,CA
92179,San Diego,San Diego,CA
92182,San Diego,San Diego,CA
92184,San Diego,San Diego,CA
92186,San Diego,San Diego,CA
92187,San Diego,San Diego,CA
92190,San Diego,San Diego,CA
92191,San Diego,San Diego,CA
92192,San Diego,San Diego,CA
92193,San Diego,San Diego,CA
92194,San Diego,San Diego,CA
92195,San Diego,San Diego,CA
92196,San Diego,San Diego,CA
92197,San Diego,San Diego,CA
92198,San Diego,San Diego,CA
92199,San Diego,San Diego,CA
92201,Indio,Riverside,CA
92202,Indio,Riverside,CA
92203,Indio,Riverside,CA
92210,Indian Wells,Riverside,CA
92211,Palm Desert,Riverside,CA
92220,Banning,Riverside,CA
92222,Bard,Imperial,CA
92223,Beaumont,Riverside,CA
92225,Blythe,Riverside,CA
92226,Blythe,Riverside,CA
92227,Brawley,Imperial,CA
92230,Cabazon,Riverside,CA
92231,Calexico,Imperial,CA
92232,Calexico,Imperial,CA
92233,Calipatria,Imperial,CA
92234,Cathedral City,Riverside,CA
92235,Cathedral City,Riverside,CA
92236,Coachella,Riverside,CA
92239,Desert Center,Riverside,CA
92240,Desert Hot Springs,Riverside,CA
92241,Desert Hot Springs,Riverside,CA
92242,Earp,San Bernardino,CA
92243,El Centro,Imperial,CA
92244,El Centro,Imperial,CA
92247,La Quinta,Riverside,CA
92248,La Quinta,Riverside,CA
92249,Heber,Imperial,CA
92250,Holtville,Imperial,CA
92251,Imperial,Imperial,CA
92252,Joshua Tree,San Bernardino,CA
92253,La Quinta,Riverside,CA
92254,Mecca,Riverside,CA
92255,Palm Desert,Riverside,CA
92256,Morongo Valley,San Bernardino,CA
92257,Niland,Imperial,CA
92258,North Palm Springs,Riverside,CA
92259,Ocotillo,Imperial,CA
92260,Palm Desert,Riverside,CA
92261,Palm Desert,Riverside,CA
92262,Palm Springs,Riverside,CA
92263,Palm Springs,Riverside,CA
92264,Palm Springs,Riverside,CA
92266,Palo Verde,Imperial,CA
92267,Parker Dam,San Bernardino,CA
92268,Pioneertown,San Bernardino,CA
92270,Rancho Mirage,Riverside,CA
92273,Seeley,Imperial,CA
92274,Thermal,Riverside,CA
92275,Salton City,Imperial,CA
92276,Thousand Palms,Riverside,CA
92277,Twentynine Palms,San Bernardino,CA
92278,Twentynine Palms,San Bernardino,CA
92280,Vidal,San Bernardino,CA
92281,Westmorland,Imperial,CA
92282,White Water,Riverside,CA
92283,Winterhaven,Imperial,CA
92284,Yucca Valley,San Bernardino,CA
92285,Landers,San Bernardino,CA
92286,Yucca Valley,San Bernardino,CA
92292,Palm Springs,Riverside,CA
92301,Adelanto,San Bernardino,CA
92304,Amboy,San Bernardino,CA
92305,Angelus Oaks,San Bernardino,CA
92307,Apple Valley,San Bernardino,CA
92308,Apple Valley,San Bernardino,CA
92309,Baker,San Bernardino,CA
92310,Fort Irwin,San Bernardino,CA
92311,Barstow,San Bernardino,CA
92312,Barstow,San Bernardino,CA
92313,Grand Terrace,San Bernardino,CA
92314,Big Bear City,San Bernardino,CA
92315,Big Bear Lake,San Bernardino,CA
92316,Bloomington,San Bernardino,CA
92317,Blue Jay,San Bernardino,CA
92318,Bryn Mawr,San Bernardino,CA
92320,Calimesa,Riverside,CA
92321,Cedar Glen,San Bernardino,CA
92322,Cedarpines Park,San Bernardino,CA
92323,Cima,San Bernardino,CA
92324,Colton,San Bernardino,CA
92325,Crestline,San Bernardino,CA
92326,Crest Park,San Bernardino,CA
92327,Daggett,San Bernardino,CA
92328,Death Valley,Inyo,CA
92329,Phelan,San Bernardino,CA
92332,Essex,San Bernardino,CA
92333,Fawnskin,San Bernardino,CA
92334,Fontana,San Bernardino,CA
92335,Fontana,San Bernardino,CA
92336,Fontana,San Bernardino,CA
92337,Fontana,San Bernardino,CA
92338,Ludlow,San Bernardino,CA
92339,Forest Falls,San Bernardino,CA
92340,Hesperia,San Bernardino,CA
92341,Green Valley Lake,San Bernardino,CA
92342,Helendale,San Bernardino,CA
92344,Oak Hills,San Bernardino,CA
92345,Hesperia,San Bernardino,CA
92346,Highland,San Bernardino,CA
92347,Hinkley,San Bernardino,CA
92350,Loma Linda,San Bernardino,CA
92352,Lake Arrowhead,San Bernardino,CA
92354,Loma Linda,San Bernardino,CA
92356,Lucerne Valley,San Bernardino,CA
92357,Loma Linda,San Bernardino,CA
92358,Lytle Creek,San Bernardino,CA
92359,Mentone,San Bernardino,CA
92363,Needles,San Bernardino,CA
92364,Nipton,San Bernardino,CA
92365,Newberry Springs,San Bernardino,CA
92366,Mountain Pass,San Bernardino,CA
92368,Oro Grande,San Bernardino,CA
92369,Patton,San Bernardino,CA
92371,Phelan,San Bernardino,CA
92372,Pinon Hills,San Bernardino,CA
92373,Redlands,San Bernardino,CA
92374,Redlands,San Bernardino,CA
92375,Redlands,San Bernardino,CA
92376,Rialto,San Bernardino,CA
92377,Rialto,San Bernardino,CA
92378,Rimforest,San Bernardino,CA
92382,Running Springs,San Bernardino,CA
92384,Shoshone,Inyo,CA
92385,Skyforest,San Bernardino,CA
92386,Sugarloaf,San Bernardino,CA
92389,Tecopa,Inyo,CA
92391,Twin Peaks,San Bernardino,CA
92392,Victorville,San Bernardino,CA
92393,Victorville,San Bernardino,CA
92394,Victorville,San Bernardino,CA
92395,Victorville,San Bernardino,CA
92397,Wrightwood,San Bernardino,CA
92398,Yermo,San Bernardino,CA
92399,Yucaipa,San Bernardino,CA
92401,San Bernardino,San Bernardino,CA
92402,San Bernardino,San Bernardino,CA
92403,San Bernardino,San Bernardino,CA
92404,San Bernardino,San Bernardino,CA
92405,San Bernardino,San Bernardino,CA
92406,San Bernardino,San Bernardino,CA
92407,San Bernardino,San Bernardino,CA
92408,San Bernardino,San Bernardino,CA
92410,San Bernardino,San Bernardino,CA
92411,San Bernardino,San Bernardino,CA
92412,San Bernardino,San Bernardino,CA
92413,San Bernardino,San Bernardino,CA
92414,San Bernardino,San Bernardino,CA
92415,San Bernardino,San Bernardino,CA
92418,San Bernardino,San Bernardino,CA
92420,San Bernardino,San Bernardino,CA
92423,San Bernardino,San Bernardino,CA
92424,San Bernardino,San Bernardino,CA
92427,San Bernardino,San Bernardino,CA
92501,Riverside,Riverside,CA
92502,Riverside,Riverside,CA
92503,Riverside,Riverside,CA
92504,Riverside,Riverside,CA
92505,Riverside,Riverside,CA
92506,Riverside,Riverside,CA
92507,Riverside,Riverside,CA
92508,Riverside,Riverside,CA
92509,Riverside,Riverside,CA
92513,Riverside,Riverside,CA
92514,Riverside,Riverside,CA
92515,Riverside,Riverside,CA
92516,Riverside,Riverside,CA
92517,Riverside,Riverside,CA
92518,March Air Force Base,Riverside,CA
92519,Riverside,Riverside,CA
92521,Riverside,Riverside,CA
92522,Riverside,Riverside,CA
92530,Lake Elsinore,Riverside,CA
92531,Lake Elsinore,Riverside,CA
92532,Lake Elsinore,Riverside,CA
92536,Aguanga,Riverside,CA
92539,Anza,Riverside,CA
92543,Hemet,Riverside,CA
92544,Hemet,Riverside,CA
92545,Hemet,Riverside,CA
92546,Hemet,Riverside,CA
92548,Homeland,Riverside,CA
92549,Idyllwild,Riverside,CA
92551,Moreno Valley,Riverside,CA
92552,Moreno Valley,Riverside,CA
92553,Moreno Valley,Riverside,CA
92554,Moreno Valley,Riverside,CA
92555,Moreno Valley,Riverside,CA
92556,Moreno Valley,Riverside,CA
92557,Moreno Valley,Riverside,CA
92561,Mountain Center,Riverside,CA
92562,Murrieta,Riverside,CA
92563,Murrieta,Riverside,CA
92564,Murrieta,Riverside,CA
92567,Nuevo,Riverside,CA
92570,Perris,Riverside,CA
92571,Perris,Riverside,CA
92572,Perris,Riverside,CA
92581,San Jacinto,Riverside,CA
92582,San Jacinto,Riverside,CA
92583,San Jacinto,Riverside,CA
92584,Menifee,Riverside,CA
92585,Sun City,Riverside,CA
92586,Sun City,Riverside,CA
92587,Sun City,Riverside,CA
92589,Temecula,Riverside,CA
92590,Temecula,Riverside,CA
92591,Temecula,Riverside,CA
92592,Temecula,Riverside,CA
92593,Temecula,Riverside,CA
92595,Wildomar,Riverside,CA
92596,Winchester,Riverside,CA
92599,Perris,Riverside,CA
92602,Irvine,Orange,CA
92603,Irvine,Orange,CA
92604,Irvine,Orange,CA
92605,Huntington Beach,Orange,CA
92606,Irvine,Orange,CA
92607,Laguna Niguel,Orange,CA
92609,El Toro,Orange,CA
92610,Foothill Ranch,Orange,CA
92612,Irvine,Orange,CA
92614,Irvine,Orange,CA
92615,Huntington Beach,Orange,CA
92616,Irvine,Orange,CA
92617,Irvine,Orange,CA
92618,Irvine,Orange,CA
92619,Irvine,Orange,CA
92620,Irvine,Orange,CA
92623,Irvine,Orange,CA
92624,Capistrano Beach,Orange,CA
92625,Corona Del Mar,Orange,CA
92626,Costa Mesa,Orange,CA
92627,Costa Mesa,Orange,CA
92628,Costa Mesa,Orange,CA
92629,Dana Point,Orange,CA
92630,Lake Forest,Orange,CA
92637,Laguna Hills,Orange,CA
92646,Huntington Beach,Orange,CA
92647,Huntington Beach,Orange,CA
92648,Huntington Beach,Orange,CA
92649,Huntington Beach,Orange,CA
92650,East Irvine,Orange,CA
92651,Laguna Beach,Orange,CA
92652,Laguna Beach,Orange,CA
92653,Laguna Hills,Orange,CA
92654,Laguna Hills,Orange,CA
92655,Midway City,Orange,CA
92656,Aliso Viejo,Orange,CA
92657,Newport Coast,Orange,CA
92658,Newport Beach,Orange,CA
92659,Newport Beach,Orange,CA
92660,Newport Beach,Orange,CA
92661,Newport Beach,Orange,CA
92662,Newport Beach,Orange,CA
92663,Newport Beach,Orange,CA
92672,San Clemente,Orange,CA
92673,San Clemente,Orange,CA
92674,San Clemente,Orange,CA
92675,San Juan Capistrano,Orange,CA
92676,Silverado,Orange,CA
92677,Laguna Niguel,Orange,CA
92678,Trabuco Canyon,Orange,CA
92679,Trabuco Canyon,Orange,CA
92683,Westminster,Orange,CA
92684,Westminster,Orange,CA
92685,Westminster,Orange,CA
92688,Rancho Santa Margarita,Orange,CA
92690,Mission Viejo,Orange,CA
92691,Mission Viejo,Orange,CA
92692,Mission Viejo,Orange,CA
92693,San Juan Capistrano,Orange,CA
92694,Ladera Ranch,Orange,CA
92697,Irvine,Orange,CA
92698,Aliso Viejo,Orange,CA
92701,Santa Ana,Orange,CA
92702,Santa Ana,Orange,CA
92703,Santa Ana,Orange,CA
92704,Santa Ana,Orange,CA
92705,Santa Ana,Orange,CA
92706,Santa Ana,Orange,CA
92707,Santa Ana,Orange,CA
92708,Fountain Valley,Orange,CA
92709,Irvine,Orange,CA
92710,Irvine,Orange,CA
92711,Santa Ana,Orange,CA
92712,Santa Ana,Orange,CA
92728,Fountain Valley,Orange,CA
92735,Santa Ana,Orange,CA
92780,Tustin,Orange,CA
92781,Tustin,Orange,CA
92782,Tustin,Orange,CA
92799,Santa Ana,Orange,CA
92801,Anaheim,Orange,CA
92802,Anaheim,Orange,CA
92803,Anaheim,Orange,CA
92804,Anaheim,Orange,CA
92805,Anaheim,Orange,CA
92806,Anaheim,Orange,CA
92807,Anaheim,Orange,CA
92808,Anaheim,Orange,CA
92809,Anaheim,Orange,CA
92811,Atwood,Orange,CA
92812,Anaheim,Orange,CA
92814,Anaheim,Orange,CA
92815,Anaheim,Orange,CA
92816,Anaheim,Orange,CA
92817,Anaheim,Orange,CA
92821,Brea,Orange,CA
92822,Brea,Orange,CA
92823,Brea,Orange,CA
92825,Anaheim,Orange,CA
92831,Fullerton,Orange,CA
92832,Fullerton,Orange,CA
92833,Fullerton,Orange,CA
92834,Fullerton,Orange,CA
92835,Fullerton,Orange,CA
92836,Fullerton,Orange,CA
92837,Fullerton,Orange,CA
92838,Fullerton,Orange,CA
92840,Garden Grove,Orange,CA
92841,Garden Grove,Orange,CA
92842,Garden Grove,Orange,CA
92843,Garden Grove,Orange,CA
92844,Garden Grove,Orange,CA
92845,Garden Grove,Orange,CA
92846,Garden Grove,Orange,CA
92850,Anaheim,Orange,CA
92856,Orange,Orange,CA
92857,Orange,Orange,CA
92859,Orange,Orange,CA
92860,Norco,Riverside,CA
92861,Villa Park,Orange,CA
92862,Orange,Orange,CA
92863,Orange,Orange,CA
92864,Orange,Orange,CA
92865,Orange,Orange,CA
92866,Orange,Orange,CA
92867,Orange,Orange,CA
92868,Orange,Orange,CA
92869,Orange,Orange,CA
92870,Placentia,Orange,CA
92871,Placentia,Orange,CA
92877,Corona,Riverside,CA
92878,Corona,Riverside,CA
92879,Corona,Riverside,CA
92880,Corona,Riverside,CA
92881,Corona,Riverside,CA
92882,Corona,Riverside,CA
92883,Corona,Riverside,CA
92885,Yorba Linda,Orange,CA
92886,Yorba Linda,Orange,CA
92887,Yorba Linda,Orange,CA
92899,Anaheim,Orange,CA
92911,San Diego,San Diego,CA
93001,Ventura,Ventura,CA
93002,Ventura,Ventura,CA
93003,Ventura,Ventura,CA
93004,Ventura,Ventura,CA
93005,Ventura,Ventura,CA
93006,Ventura,Ventura,CA
93007,Ventura,Ventura,CA
93009,Ventura,Ventura,CA
93010,Camarillo,Ventura,CA
93011,Camarillo,Ventura,CA
93012,Camarillo,Ventura,CA
93013,Carpinteria,Santa Barbara,CA
93014,Carpinteria,Santa Barbara,CA
93015,Fillmore,Ventura,CA
93016,Fillmore,Ventura,CA
93020,Moorpark,Ventura,CA
93021,Moorpark,Ventura,CA
93022,Oak View,Ventura,CA
93023,Ojai,Ventura,CA
93024,Ojai,Ventura,CA
93030,Oxnard,Ventura,CA
93031,Oxnard,Ventura,CA
93032,Oxnard,Ventura,CA
93033,Oxnard,Ventura,CA
93034,Oxnard,Ventura,CA
93035,Oxnard,Ventura,CA
93036,Oxnard,Ventura,CA
93040,Piru,Ventura,CA
93041,Port Hueneme,Ventura,CA
93042,Point Mugu Nawc,Ventura,CA
93043,Port Hueneme Cbc Base,Ventura,CA
93044,Port Hueneme,Ventura,CA
93060,Santa Paula,Ventura,CA
93061,Santa Paula,Ventura,CA
93062,Simi Valley,Ventura,CA
93063,Simi Valley,Ventura,CA
93064,Brandeis,Ventura,CA
93065,Simi Valley,Ventura,CA
93066,Somis,Ventura,CA
93067,Summerland,Santa Barbara,CA
93093,Simi Valley,Ventura,CA
93094,Simi Valley,Ventura,CA
93099,Simi Valley,Ventura,CA
93101,Santa Barbara,Santa Barbara,CA
93102,Santa Barbara,Santa Barbara,CA
93103,Santa Barbara,Santa Barbara,CA
93105,Santa Barbara,Santa Barbara,CA
93106,Santa Barbara,Santa Barbara,CA
93107,Santa Barbara,Santa Barbara,CA
93108,Santa Barbara,Santa Barbara,CA
93109,Santa Barbara,Santa Barbara,CA
93110,Santa Barbara,Santa Barbara,CA
93111,Santa Barbara,Santa Barbara,CA
93116,Goleta,Santa Barbara,CA
93117,Goleta,Santa Barbara,CA
93118,Goleta,Santa Barbara,CA
93120,Santa Barbara,Santa Barbara,CA
93121,Santa Barbara,Santa Barbara,CA
93130,Santa Barbara,Santa Barbara,CA
93140,Santa Barbara,Santa Barbara,CA
93150,Santa Barbara,Santa Barbara,CA
93160,Santa Barbara,Santa Barbara,CA
93190,Santa Barbara,Santa Barbara,CA
93199,Goleta,Santa Barbara,CA
93201,Alpaugh,Tulare,CA
93202,Armona,Kings,CA
93203,Arvin,Kern,CA
93204,Avenal,Kings,CA
93205,Bodfish,Kern,CA
93206,Buttonwillow,Kern,CA
93207,California Hot Springs,Tulare,CA
93208,Camp Nelson,Tulare,CA
93210,Coalinga,Fresno,CA
93212,Corcoran,Kings,CA
93215,Delano,Kern,CA
93216,Delano,Kern,CA
93218,Ducor,Tulare,CA
93219,Earlimart,Tulare,CA
93220,Edison,Kern,CA
93221,Exeter,Tulare,CA
93222,Frazier Park,Kern,CA
93223,Farmersville,Tulare,CA
93224,Fellows,Kern,CA
93225,Frazier Park,Kern,CA
93226,Glennville,Kern,CA
93227,Goshen,Tulare,CA
93230,Hanford,Kings,CA
93232,Hanford,Kings,CA
93234,Huron,Fresno,CA
93235,Ivanhoe,Tulare,CA
93237,Kaweah,Tulare,CA
93238,Kernville,Kern,CA
93239,Kettleman City,Kings,CA
93240,Lake Isabella,Kern,CA
93241,Lamont,Kern,CA
93242,Laton,Fresno,CA
93243,Lebec,Kern,CA
93244,Lemon Cove,Tulare,CA
93245,Lemoore,Kings,CA
93246,Lemoore,Kings,CA
93247,Lindsay,Tulare,CA
93249,Lost Hills,Kern,CA
93250,Mc Farland,Kern,CA
93251,Mc Kittrick,Kern,CA
93252,Maricopa,Kern,CA
93254,New Cuyama,Santa Barbara,CA
93255,Onyx,Kern,CA
93256,Pixley,Tulare,CA
93257,Porterville,Tulare,CA
93258,Porterville,Tulare,CA
93260,Posey,Tulare,CA
93261,Richgrove,Tulare,CA
93262,Sequoia National Park,Tulare,CA
93263,Shafter,Kern,CA
93265,Springville,Tulare,CA
93266,Stratford,Kings,CA
93267,Strathmore,Tulare,CA
93268,Taft,Kern,CA
93270,Terra Bella,Tulare,CA
93271,Three Rivers,Tulare,CA
93272,Tipton,Tulare,CA
93274,Tulare,Tulare,CA
93275,Tulare,Tulare,CA
93276,Tupman,Kern,CA
93277,Visalia,Tulare,CA
93278,Visalia,Tulare,CA
93279,Visalia,Tulare,CA
93280,Wasco,Kern,CA
93282,Waukena,Tulare,CA
93283,Weldon,Kern,CA
93285,Wofford Heights,Kern,CA
93286,Woodlake,Tulare,CA
93287,Woody,Kern,CA
93290,Visalia,Tulare,CA
93291,Visalia,Tulare,CA
93292,Visalia,Tulare,CA
93301,Bakersfield,Kern,CA
93302,Bakersfield,Kern,CA
93303,Bakersfield,Kern,CA
93304,Bakersfield,Kern,CA
93305,Bakersfield,Kern,CA
93306,Bakersfield,Kern,CA
93307,Bakersfield,Kern,CA
93308,Bakersfield,Kern,CA
93309,Bakersfield,Kern,CA
93311,Bakersfield,Kern,CA
93312,Bakersfield,Kern,CA
93313,Bakersfield,Kern,CA
93314,Bakersfield,Kern,CA
93380,Bakersfield,Kern,CA
93381,Bakersfield,Kern,CA
93382,Bakersfield,Kern,CA
93383,Bakersfield,Kern,CA
93384,Bakersfield,Kern,CA
93385,Bakersfield,Kern,CA
93386,Bakersfield,Kern,CA
93387,Bakersfield,Kern,CA
93388,Bakersfield,Kern,CA
93389,Bakersfield,Kern,CA
93390,Bakersfield,Kern,CA
93401,San Luis Obispo,San Luis Obispo,CA
93402,Los Osos,San Luis Obispo,CA
93403,San Luis Obispo,San Luis Obispo,CA
93405,San Luis Obispo,San Luis Obispo,CA
93406,San Luis Obispo,San Luis Obispo,CA
93407,San Luis Obispo,San Luis Obispo,CA
93408,San Luis Obispo,San Luis Obispo,CA
93409,San Luis Obispo,San Luis Obispo,CA
93410,San Luis Obispo,San Luis Obispo,CA
93412,Los Osos,San Luis Obispo,CA
93420,Arroyo Grande,San Luis Obispo,CA
93421,Arroyo Grande,San Luis Obispo,CA
93422,Atascadero,San Luis Obispo,CA
93423,Atascadero,San Luis Obispo,CA
93424,Avila Beach,San Luis Obispo,CA
93426,Bradley,Monterey,CA
93427,Buellton,Santa Barbara,CA
93428,Cambria,San Luis Obispo,CA
93429,Casmalia,Santa Barbara,CA
93430,Cayucos,San Luis Obispo,CA
93432,Creston,San Luis Obispo,CA
93433,Grover Beach,San Luis Obispo,CA
93434,Guadalupe,Santa Barbara,CA
93435,Harmony,San Luis Obispo,CA
93436,Lompoc,Santa Barbara,CA
93437,Lompoc,Santa Barbara,CA
93438,Lompoc,Santa Barbara,CA
93440,Los Alamos,Santa Barbara,CA
93441,Los Olivos,Santa Barbara,CA
93442,Morro Bay,San Luis Obispo,CA
93443,Morro Bay,San Luis Obispo,CA
93444,Nipomo,San Luis Obispo,CA
93445,Oceano,San Luis Obispo,CA
93446,Paso Robles,San Luis Obispo,CA
93447,Paso Robles,San Luis Obispo,CA
93448,Pismo Beach,San Luis Obispo,CA
93449,Pismo Beach,San Luis Obispo,CA
93450,San Ardo,Monterey,CA
93451,San Miguel,San Luis Obispo,CA
93452,San Simeon,San Luis Obispo,CA
93453,Santa Margarita,San Luis Obispo,CA
93454,Santa Maria,Santa Barbara,CA
93455,Santa Maria,Santa Barbara,CA
93456,Santa Maria,Santa Barbara,CA
93457,Santa Maria,Santa Barbara,CA
93458,Santa Maria,Santa Barbara,CA
93460,Santa Ynez,Santa Barbara,CA
93461,Shandon,San Luis Obispo,CA
93463,Solvang,Santa Barbara,CA
93464,Solvang,Santa Barbara,CA
93465,Templeton,San Luis Obispo,CA
93475,Oceano,San Luis Obispo,CA
93483,Grover Beach,San Luis Obispo,CA
93501,Mojave,Kern,CA
93502,Mojave,Kern,CA
93504,California City,Kern,CA
93505,California City,Kern,CA
93510,Acton,Los Angeles,CA
93512,Benton,Mono,CA
93513,Big Pine,Inyo,CA
93514,Bishop,Inyo,CA
93515,Bishop,Inyo,CA
93516,Boron,Kern,CA
93517,Bridgeport,Mono,CA
93518,Caliente,Kern,CA
93519,Cantil,Kern,CA
93522,Darwin,Inyo,CA
93523,Edwards,Kern,CA
93524,Edwards,Kern,CA
93526,Independence,Inyo,CA
93527,Inyokern,Kern,CA
93528,Johannesburg,Kern,CA
93529,June Lake,Mono,CA
93530,Keeler,Inyo,CA
93531,Keene,Kern,CA
93532,Lake Hughes,Los Angeles,CA
93534,Lancaster,Los Angeles,CA
93535,Lancaster,Los Angeles,CA
93536,Lancaster,Los Angeles,CA
93539,Lancaster,Los Angeles,CA
93541,Lee Vining,Mono,CA
93542,Little Lake,Inyo,CA
93543,Littlerock,Los Angeles,CA
93544,Llano,Los Angeles,CA
93545,Lone Pine,Inyo,CA
93546,Mammoth Lakes,Mono,CA
93549,Olancha,Inyo,CA
93550,Palmdale,Los Angeles,CA
93551,Palmdale,Los Angeles,CA
93552,Palmdale,Los Angeles,CA
93553,Pearblossom,Los Angeles,CA
93554,Randsburg,Kern,CA
93555,Ridgecrest,Kern,CA
93556,Ridgecrest,Kern,CA
93558,Red Mountain,San Bernardino,CA
93560,Rosamond,Kern,CA
93561,Tehachapi,Kern,CA
93562,Trona,San Bernardino,CA
93563,Valyermo,Los Angeles,CA
93570,Rosamond,Kern,CA
93581,Tehachapi,Kern,CA
93584,Lancaster,Los Angeles,CA
93586,Lancaster,Los Angeles,CA
93590,Palmdale,Los Angeles,CA
93591,Palmdale,Los Angeles,CA
93592,Trona,San Bernardino,CA
93596,Boron,Kern,CA
93599,Palmdale,Los Angeles,CA
93601,Ahwahnee,Madera,CA
93602,Auberry,Fresno,CA
93603,Badger,Tulare,CA
93604,Bass Lake,Madera,CA
93605,Big Creek,Fresno,CA
93606,Biola,Fresno,CA
93607,Burrel,Fresno,CA
93608,Cantua Creek,Fresno,CA
93609,Caruthers,Fresno,CA
93610,Chowchilla,Madera,CA
93611,Clovis,Fresno,CA
93612,Clovis,Fresno,CA
93613,Clovis,Fresno,CA
93614,Coarsegold,Madera,CA
93615,Cutler,Tulare,CA
93616,Del Rey,Fresno,CA
93618,Dinuba,Tulare,CA
93619,Clovis,Fresno,CA
93620,Dos Palos,Merced,CA
93621,Dunlap,Fresno,CA
93622,Firebaugh,Fresno,CA
93623,Fish Camp,Mariposa,CA
93624,Five Points,Fresno,CA
93625,Fowler,Fresno,CA
93626,Friant,Fresno,CA
93627,Helm,Fresno,CA
93628,Hume,Fresno,CA
93630,Kerman,Fresno,CA
93631,Kingsburg,Fresno,CA
93633,Kings Canyon National Pk,Tulare,CA
93634,Lakeshore,Fresno,CA
93635,Los Banos,Merced,CA
93636,Madera,Madera,CA
93637,Madera,Madera,CA
93638,Madera,Madera,CA
93639,Madera,Madera,CA
93640,Mendota,Fresno,CA
93641,Miramonte,Fresno,CA
93642,Mono Hot Springs,Fresno,CA
93643,North Fork,Madera,CA
93644,Oakhurst,Madera,CA
93645,O Neals,Madera,CA
93646,Orange Cove,Fresno,CA
93647,Orosi,Tulare,CA
93648,Parlier,Fresno,CA
93649,Piedra,Fresno,CA
93650,Fresno,Fresno,CA
93651,Prather,Fresno,CA
93652,Raisin,Fresno,CA
93653,Raymond,Madera,CA
93654,Reedley,Fresno,CA
93656,Riverdale,Fresno,CA
93657,Sanger,Fresno,CA
93660,San Joaquin,Fresno,CA
93661,Santa Rita Park,Merced,CA
93662,Selma,Fresno,CA
93664,Shaver Lake,Fresno,CA
93665,South Dos Palos,Merced,CA
93666,Sultana,Tulare,CA
93667,Tollhouse,Fresno,CA
93668,Tranquillity,Fresno,CA
93669,Wishon,Madera,CA
93670,Yettem,Tulare,CA
93673,Traver,Tulare,CA
93675,Squaw Valley,Fresno,CA
93701,Fresno,Fresno,CA
93702,Fresno,Fresno,CA
93703,Fresno,Fresno,CA
93704,Fresno,Fresno,CA
93705,Fresno,Fresno,CA
93706,Fresno,Fresno,CA
93707,Fresno,Fresno,CA
93708,Fresno,Fresno,CA
93709,Fresno,Fresno,CA
93710,Fresno,Fresno,CA
93711,Fresno,Fresno,CA
93712,Fresno,Fresno,CA
93714,Fresno,Fresno,CA
93715,Fresno,Fresno,CA
93716,Fresno,Fresno,CA
93717,Fresno,Fresno,CA
93718,Fresno,Fresno,CA
93720,Fresno,Fresno,CA
93721,Fresno,Fresno,CA
93722,Fresno,Fresno,CA
93723,Fresno,Fresno,CA
93724,Fresno,Fresno,CA
93725,Fresno,Fresno,CA
93726,Fresno,Fresno,CA
93727,Fresno,Fresno,CA
93728,Fresno,Fresno,CA
93729,Fresno,Fresno,CA
93730,Fresno,Fresno,CA
93737,Fresno,Fresno,CA
93740,Fresno,Fresno,CA
93741,Fresno,Fresno,CA
93744,Fresno,Fresno,CA
93745,Fresno,Fresno,CA
93747,Fresno,Fresno,CA
93750,Fresno,Fresno,CA
93755,Fresno,Fresno,CA
93760,Fresno,Fresno,CA
93761,Fresno,Fresno,CA
93762,Fresno,Fresno,CA
93764,Fresno,Fresno,CA
93765,Fresno,Fresno,CA
93771,Fresno,Fresno,CA
93772,Fresno,Fresno,CA
93773,Fresno,Fresno,CA
93774,Fresno,Fresno,CA
93775,Fresno,Fresno,CA
93776,Fresno,Fresno,CA
93777,Fresno,Fresno,CA
93778,Fresno,Fresno,CA
93779,Fresno,Fresno,CA
93780,Fresno,Fresno,CA
93784,Fresno,Fresno,CA
93786,Fresno,Fresno,CA
93790,Fresno,Fresno,CA
93791,Fresno,Fresno,CA
93792,Fresno,Fresno,CA
93793,Fresno,Fresno,CA
93794,Fresno,Fresno,CA
93844,Fresno,Fresno,CA
93888,Fresno,Fresno,CA
93901,Salinas,Monterey,CA
93902,Salinas,Monterey,CA
93905,Salinas,Monterey,CA
93906,Salinas,Monterey,CA
93907,Salinas,Monterey,CA
93908,Salinas,Monterey,CA
93912,Salinas,Monterey,CA
93915,Salinas,Monterey,CA
93920,Big Sur,Monterey,CA
93921,Carmel,Monterey,CA
93922,Carmel,Monterey,CA
93923,Carmel,Monterey,CA
93924,Carmel Valley,Monterey,CA
93925,Chualar,Monterey,CA
93926,Gonzales,Monterey,CA
93927,Greenfield,Monterey,CA
93928,Jolon,Monterey,CA
93930,King City,Monterey,CA
93932,Lockwood,Monterey,CA
93933,Marina,Monterey,CA
93940,Monterey,Monterey,CA
93942,Monterey,Monterey,CA
93943,Monterey,Monterey,CA
93944,Monterey,Monterey,CA
93950,Pacific Grove,Monterey,CA
93953,Pebble Beach,Monterey,CA
93954,San Lucas,Monterey,CA
93955,Seaside,Monterey,CA
93960,Soledad,Monterey,CA
93962,Spreckels,Monterey,CA
94002,Belmont,San Mateo,CA
94003,Belmont,San Mateo,CA
94005,Brisbane,San Mateo,CA
94010,Burlingame,San Mateo,CA
94011,Burlingame,San Mateo,CA
94012,Burlingame,San Mateo,CA
94013,Daly City,San Mateo,CA
94014,Daly City,San Mateo,CA
94015,Daly City,San Mateo,CA
94016,Daly City,San Mateo,CA
94017,Daly City,San Mateo,CA
94018,El Granada,San Mateo,CA
94019,Half Moon Bay,San Mateo,CA
94020,La Honda,San Mateo,CA
94021,Loma Mar,San Mateo,CA
94022,Los Altos,Santa Clara,CA
94023,Los Altos,Santa Clara,CA
94024,Los Altos,Santa Clara,CA
94025,Menlo Park,San Mateo,CA
94026,Menlo Park,San Mateo,CA
94027,Atherton,San Mateo,CA
94028,Portola Valley,San Mateo,CA
94029,Menlo Park,San Mateo,CA
94030,Millbrae,San Mateo,CA
94031,Millbrae,San Mateo,CA
94035,Mountain View,Santa Clara,CA
94037,Montara,San Mateo,CA
94038,Moss Beach,San Mateo,CA
94039,Mountain View,Santa Clara,CA
94040,Mountain View,Santa Clara,CA
94041,Mountain View,Santa Clara,CA
94042,Mountain View,Santa Clara,CA
94043,Mountain View,Santa Clara,CA
94044,Pacifica,San Mateo,CA
94045,Pacifica,San Mateo,CA
94059,Redwood City,San Mateo,CA
94060,Pescadero,San Mateo,CA
94061,Redwood City,San Mateo,CA
94062,Redwood City,San Mateo,CA
94063,Redwood City,San Mateo,CA
94064,Redwood City,San Mateo,CA
94065,Redwood City,San Mateo,CA
94066,San Bruno,San Mateo,CA
94067,San Bruno,San Mateo,CA
94070,San Carlos,San Mateo,CA
94071,San Carlos,San Mateo,CA
94074,San Gregorio,San Mateo,CA
94080,South San Francisco,San Mateo,CA
94083,South San Francisco,San Mateo,CA
94085,Sunnyvale,Santa Clara,CA
94086,Sunnyvale,Santa Clara,CA
94087,Sunnyvale,Santa Clara,CA
94088,Sunnyvale,Santa Clara,CA
94089,Sunnyvale,Santa Clara,CA
94090,Sunnyvale,Santa Clara,CA
94096,San Bruno,San Mateo,CA
94098,San Bruno,San Mateo,CA
94099,South San Francisco,San Mateo,CA
94101,San Francisco,San Francisco,CA
94102,San Francisco,San Francisco,CA
94103,San Francisco,San Francisco,CA
94104,San Francisco,San Francisco,CA
94105,San Francisco,San Francisco,CA
94106,San Francisco,San Francisco,CA
94107,San Francisco,San Francisco,CA
94108,San Francisco,San Francisco,CA
94109,San Francisco,San Francisco,CA
94110,San Francisco,San Francisco,CA
94111,San Francisco,San Francisco,CA
94112,San Francisco,San Francisco,CA
94113,San Francisco,San Francisco,CA
94114,San Francisco,San Francisco,CA
94115,San Francisco,San Francisco,CA
94116,San Francisco,San Francisco,CA
94117,San Francisco,San Francisco,CA
94118,San Francisco,San Francisco,CA
94119,San Francisco,San Francisco,CA
94120,San Francisco,San Francisco,CA
94121,San Francisco,San Francisco,CA
94122,San Francisco,San Francisco,CA
94123,San Francisco,San Francisco,CA
94124,San Francisco,San Francisco,CA
94125,San Francisco,San Francisco,CA
94126,San Francisco,San Francisco,CA
94127,San Francisco,San Francisco,CA
94128,San Francisco,San Mateo,CA
94129,San Francisco,San Francisco,CA
94130,San Francisco,San Francisco,CA
94131,San Francisco,San Francisco,CA
94132,San Francisco,San Francisco,CA
94133,San Francisco,San Francisco,CA
94134,San Francisco,San Francisco,CA
94135,San Francisco,San Francisco,CA
94136,San Francisco,San Francisco,CA
94137,San Francisco,San Francisco,CA
94138,San Francisco,San Francisco,CA
94139,San Francisco,San Francisco,CA
94140,San Francisco,San Francisco,CA
94141,San Francisco,San Francisco,CA
94142,San Francisco,San Francisco,CA
94143,San Francisco,San Francisco,CA
94144,San Francisco,San Francisco,CA
94145,San Francisco,San Francisco,CA
94146,San Francisco,San Francisco,CA
94147,San Francisco,San Francisco,CA
94150,San Francisco,San Francisco,CA
94151,San Francisco,San Francisco,CA
94152,San Francisco,San Francisco,CA
94153,San Francisco,San Francisco,CA
94154,San Francisco,San Francisco,CA
94155,San Francisco,San Francisco,CA
94156,San Francisco,San Francisco,CA
94157,San Francisco,San Francisco,CA
94158,San Francisco,San Francisco,CA
94159,San Francisco,San Francisco,CA
94160,San Francisco,San Francisco,CA
94161,San Francisco,San Francisco,CA
94162,San Francisco,San Francisco,CA
94163,San Francisco,San Francisco,CA
94164,San Francisco,San Francisco,CA
94165,San Francisco,San Francisco,CA
94166,San Francisco,San Francisco,CA
94167,San Francisco,San Francisco,CA
94168,San Francisco,San Francisco,CA
94169,San Francisco,San Francisco,CA
94170,San Francisco,San Francisco,CA
94171,San Francisco,San Francisco,CA
94172,San Francisco,San Francisco,CA
94175,San Francisco,San Francisco,CA
94177,San Francisco,San Francisco,CA
94188,San Francisco,San Francisco,CA
94203,Sacramento,Sacramento,CA
94204,Sacramento,Sacramento,CA
94205,Sacramento,Sacramento,CA
94206,Sacramento,Sacramento,CA
94207,Sacramento,Sacramento,CA
94208,Sacramento,Sacramento,CA
94209,Sacramento,Sacramento,CA
94211,Sacramento,Sacramento,CA
94229,Sacramento,Sacramento,CA
94230,Sacramento,Sacramento,CA
94232,Sacramento,Sacramento,CA
94234,Sacramento,Sacramento,CA
94235,Sacramento,Sacramento,CA
94236,Sacramento,Sacramento,CA
94237,Sacramento,Sacramento,CA
94239,Sacramento,Sacramento,CA
94240,Sacramento,Sacramento,CA
94243,Sacramento,Sacramento,CA
94244,Sacramento,Sacramento,CA
94245,Sacramento,Sacramento,CA
94246,Sacramento,Sacramento,CA
94247,Sacramento,Sacramento,CA
94248,Sacramento,Sacramento,CA
94249,Sacramento,Sacramento,CA
94250,Sacramento,Sacramento,CA
94252,Sacramento,Sacramento,CA
94253,Sacramento,Sacramento,CA
94254,Sacramento,Sacramento,CA
94256,Sacramento,Sacramento,CA
94257,Sacramento,Sacramento,CA
94258,Sacramento,Sacramento,CA
94259,Sacramento,Sacramento,CA
94261,Sacramento,Sacramento,CA
94262,Sacramento,Sacramento,CA
94263,Sacramento,Sacramento,CA
94267,Sacramento,Sacramento,CA
94268,Sacramento,Sacramento,CA
94269,Sacramento,Sacramento,CA
94271,Sacramento,Sacramento,CA
94273,Sacramento,Sacramento,CA
94274,Sacramento,Sacramento,CA
94277,Sacramento,Sacramento,CA
94278,Sacramento,Sacramento,CA
94279,Sacramento,Sacramento,CA
94280,Sacramento,Sacramento,CA
94282,Sacramento,Sacramento,CA
94283,Sacramento,Sacramento,CA
94284,Sacramento,Sacramento,CA
94285,Sacramento,Sacramento,CA
94286,Sacramento,Sacramento,CA
94287,Sacramento,Sacramento,CA
94288,Sacramento,Sacramento,CA
94289,Sacramento,Sacramento,CA
94290,Sacramento,Sacramento,CA
94291,Sacramento,Sacramento,CA
94293,Sacramento,Sacramento,CA
94294,Sacramento,Sacramento,CA
94295,Sacramento,Sacramento,CA
94296,Sacramento,Sacramento,CA
94297,Sacramento,Sacramento,CA
94298,Sacramento,Sacramento,CA
94299,Sacramento,Sacramento,CA
94301,Palo Alto,Santa Clara,CA
94302,Palo Alto,Santa Clara,CA
94303,Palo Alto,San Mateo,CA
94304,Palo Alto,Santa Clara,CA
94305,Stanford,Santa Clara,CA
94306,Palo Alto,Santa Clara,CA
94307,Palo Alto,San Mateo,CA
94308,Palo Alto,San Mateo,CA
94309,Palo Alto,Santa Clara,CA
94310,Palo Alto,Santa Clara,CA
94401,San Mateo,San Mateo,CA
94402,San Mateo,San Mateo,CA
94403,San Mateo,San Mateo,CA
94404,San Mateo,San Mateo,CA
94405,San Mateo,San Mateo,CA
94406,San Mateo,San Mateo,CA
94407,San Mateo,San Mateo,CA
94408,San Mateo,San Mateo,CA
94409,San Mateo,San Mateo,CA
94497,San Mateo,San Mateo,CA
94501,Alameda,Alameda,CA
94502,Alameda,Alameda,CA
94503,American Canyon,Napa,CA
94505,Discovery Bay,Contra Costa,CA
94506,Danville,Contra Costa,CA
94507,Alamo,Contra Costa,CA
94508,Angwin,Napa,CA
94509,Antioch,Contra Costa,CA
94510,Benicia,Solano,CA
94511,Bethel Island,Contra Costa,CA
94512,Birds Landing,Solano,CA
94513,Brentwood,Contra Costa,CA
94514,Byron,Contra Costa,CA
94515,Calistoga,Napa,CA
94516,Canyon,Contra Costa,CA
94517,Clayton,Contra Costa,CA
94518,Concord,Contra Costa,CA
94519,Concord,Contra Costa,CA
94520,Concord,Contra Costa,CA
94521,Concord,Contra Costa,CA
94522,Concord,Contra Costa,CA
94523,Pleasant Hill,Contra Costa,CA
94524,Concord,Contra Costa,CA
94525,Crockett,Contra Costa,CA
94526,Danville,Contra Costa,CA
94527,Concord,Contra Costa,CA
94528,Diablo,Contra Costa,CA
94529,Concord,Contra Costa,CA
94530,El Cerrito,Contra Costa,CA
94531,Antioch,Contra Costa,CA
94533,Fairfield,Solano,CA
94534,Fairfield,Solano,CA
94535,Travis Afb,Solano,CA
94536,Fremont,Alameda,CA
94537,Fremont,Alameda,CA
94538,Fremont,Alameda,CA
94539,Fremont,Alameda,CA
94540,Hayward,Alameda,CA
94541,Hayward,Alameda,CA
94542,Hayward,Alameda,CA
94543,Hayward,Alameda,CA
94544,Hayward,Alameda,CA
94545,Hayward,Alameda,CA
94546,Castro Valley,Alameda,CA
94547,Hercules,Contra Costa,CA
94548,Knightsen,Contra Costa,CA
94549,Lafayette,Contra Costa,CA
94550,Livermore,Alameda,CA
94551,Livermore,Alameda,CA
94552,Castro Valley,Alameda,CA
94553,Martinez,Contra Costa,CA
94555,Fremont,Alameda,CA
94556,Moraga,Contra Costa,CA
94557,Hayward,Alameda,CA
94558,Napa,Napa,CA
94559,Napa,Napa,CA
94560,Newark,Alameda,CA
94561,Oakley,Contra Costa,CA
94562,Oakville,Napa,CA
94563,Orinda,Contra Costa,CA
94564,Pinole,Contra Costa,CA
94565,Pittsburg,Contra Costa,CA
94566,Pleasanton,Alameda,CA
94567,Pope Valley,Napa,CA
94568,Dublin,Alameda,CA
94569,Port Costa,Contra Costa,CA
94570,Moraga,Contra Costa,CA
94571,Rio Vista,Solano,CA
94572,Rodeo,Contra Costa,CA
94573,Rutherford,Napa,CA
94574,Saint Helena,Napa,CA
94575,Moraga,Contra Costa,CA
94576,Deer Park,Napa,CA
94577,San Leandro,Alameda,CA
94578,San Leandro,Alameda,CA
94579,San Leandro,Alameda,CA
94580,San Lorenzo,Alameda,CA
94581,Napa,Napa,CA
94582,San Ramon,Contra Costa,CA
94583,San Ramon,Contra Costa,CA
94585,Suisun City,Solano,CA
94586,Sunol,Alameda,CA
94587,Union City,Alameda,CA
94588,Pleasanton,Alameda,CA
94589,Vallejo,Solano,CA
94590,Vallejo,Solano,CA
94591,Vallejo,Solano,CA
94592,Vallejo,Solano,CA
94595,Walnut Creek,Contra Costa,CA
94596,Walnut Creek,Contra Costa,CA
94597,Walnut Creek,Contra Costa,CA
94598,Walnut Creek,Contra Costa,CA
94599,Yountville,Napa,CA
94601,Oakland,Alameda,CA
94602,Oakland,Alameda,CA
94603,Oakland,Alameda,CA
94604,Oakland,Alameda,CA
94605,Oakland,Alameda,CA
94606,Oakland,Alameda,CA
94607,Oakland,Alameda,CA
94608,Emeryville,Alameda,CA
94609,Oakland,Alameda,CA
94610,Oakland,Alameda,CA
94611,Oakland,Alameda,CA
94612,Oakland,Alameda,CA
94613,Oakland,Alameda,CA
94614,Oakland,Alameda,CA
94615,Oakland,Alameda,CA
94617,Oakland,Alameda,CA
94618,Oakland,Alameda,CA
94619,Oakland,Alameda,CA
94620,Piedmont,Alameda,CA
94621,Oakland,Alameda,CA
94622,Oakland,Alameda,CA
94623,Oakland,Alameda,CA
94624,Oakland,Alameda,CA
94625,Oakland,Alameda,CA
94626,Oakland,Alameda,CA
94627,Oakland,Alameda,CA
94643,Oakland,Alameda,CA
94649,Oakland,Alameda,CA
94659,Oakland,Alameda,CA
94660,Oakland,Alameda,CA
94661,Oakland,Alameda,CA
94662,Emeryville,Alameda,CA
94666,Oakland,Alameda,CA
94701,Berkeley,Alameda,CA
94702,Berkeley,Alameda,CA
94703,Berkeley,Alameda,CA
94704,Berkeley,Alameda,CA
94705,Berkeley,Alameda,CA
94706,Albany,Alameda,CA
94707,Berkeley,Alameda,CA
94708,Berkeley,Alameda,CA
94709,Berkeley,Alameda,CA
94710,Berkeley,Alameda,CA
94712,Berkeley,Alameda,CA
94720,Berkeley,Alameda,CA
94801,Richmond,Contra Costa,CA
94802,Richmond,Contra Costa,CA
94803,El Sobrante,Contra Costa,CA
94804,Richmond,Contra Costa,CA
94805,Richmond,Contra Costa,CA
94806,San Pablo,Contra Costa,CA
94807,Richmond,Contra Costa,CA
94808,Richmond,Contra Costa,CA
94820,El Sobrante,Contra Costa,CA
94850,Richmond,Contra Costa,CA
94901,San Rafael,Marin,CA
94903,San Rafael,Marin,CA
94904,Greenbrae,Marin,CA
94912,San Rafael,Marin,CA
94913,San Rafael,Marin,CA
94914,Kentfield,Marin,CA
94915,San Rafael,Marin,CA
94920,Belvedere Tiburon,Marin,CA
94922,Bodega,Sonoma,CA
94923,Bodega Bay,Sonoma,CA
94924,Bolinas,Marin,CA
94925,Corte Madera,Marin,CA
94926,Cotati,Sonoma,CA
94927,Rohnert Park,Sonoma,CA
94928,Rohnert Park,Sonoma,CA
94929,Dillon Beach,Marin,CA
94930,Fairfax,Marin,CA
94931,Cotati,Sonoma,CA
94933,Forest Knolls,Marin,CA
94937,Inverness,Marin,CA
94938,Lagunitas,Marin,CA
94939,Larkspur,Marin,CA
94940,Marshall,Marin,CA
94941,Mill Valley,Marin,CA
94942,Mill Valley,Marin,CA
94945,Novato,Marin,CA
94946,Nicasio,Marin,CA
94947,Novato,Marin,CA
94948,Novato,Marin,CA
94949,Novato,Marin,CA
94950,Olema,Marin,CA
94951,Penngrove,Sonoma,CA
94952,Petaluma,Sonoma,CA
94953,Petaluma,Sonoma,CA
94954,Petaluma,Sonoma,CA
94955,Petaluma,Sonoma,CA
94956,Point Reyes Station,Marin,CA
94957,Ross,Marin,CA
94960,San Anselmo,Marin,CA
94963,San Geronimo,Marin,CA
94964,San Quentin,Marin,CA
94965,Sausalito,Marin,CA
94966,Sausalito,Marin,CA
94970,Stinson Beach,Marin,CA
94971,Tomales,Marin,CA
94972,Valley Ford,Sonoma,CA
94973,Woodacre,Marin,CA
94974,San Quentin,Marin,CA
94975,Petaluma,Sonoma,CA
94976,Corte Madera,Marin,CA
94977,Larkspur,Marin,CA
94978,Fairfax,Marin,CA
94979,San Anselmo,Marin,CA
94998,Novato,Marin,CA
94999,Petaluma,Sonoma,CA
95001,Aptos,Santa Cruz,CA
95002,Alviso,Santa Clara,CA
95003,Aptos,Santa Cruz,CA
95004,Aromas,Monterey,CA
95005,Ben Lomond,Santa Cruz,CA
95006,Boulder Creek,Santa Cruz,CA
95007,Brookdale,Santa Cruz,CA
95008,Campbell,Santa Clara,CA
95009,Campbell,Santa Clara,CA
95010,Capitola,Santa Cruz,CA
95011,Campbell,Santa Clara,CA
95012,Castroville,Monterey,CA
95013,Coyote,Santa Clara,CA
95014,Cupertino,Santa Clara,CA
95015,Cupertino,Santa Clara,CA
95017,Davenport,Santa Cruz,CA
95018,Felton,Santa Cruz,CA
95019,Freedom,Santa Cruz,CA
95020,Gilroy,Santa Clara,CA
95021,Gilroy,Santa Clara,CA
95023,Hollister,San Benito,CA
95024,Hollister,San Benito,CA
95026,Holy City,Santa Clara,CA
95030,Los Gatos,Santa Clara,CA
95031,Los Gatos,Santa Clara,CA
95032,Los Gatos,Santa Clara,CA
95033,Los Gatos,Santa Clara,CA
95035,Milpitas,Santa Clara,CA
95036,Milpitas,Santa Clara,CA
95037,Morgan Hill,Santa Clara,CA
95038,Morgan Hill,Santa Clara,CA
95039,Moss Landing,Monterey,CA
95041,Mount Hermon,Santa Cruz,CA
95042,New Almaden,Santa Clara,CA
95043,Paicines,San Benito,CA
95044,Redwood Estates,Santa Clara,CA
95045,San Juan Bautista,San Benito,CA
95046,San Martin,Santa Clara,CA
95050,Santa Clara,Santa Clara,CA
95051,Santa Clara,Santa Clara,CA
95052,Santa Clara,Santa Clara,CA
95053,Santa Clara,Santa Clara,CA
95054,Santa Clara,Santa Clara,CA
95055,Santa Clara,Santa Clara,CA
95056,Santa Clara,Santa Clara,CA
95060,Santa Cruz,Santa Cruz,CA
95061,Santa Cruz,Santa Cruz,CA
95062,Santa Cruz,Santa Cruz,CA
95063,Santa Cruz,Santa Cruz,CA
95064,Santa Cruz,Santa Cruz,CA
95065,Santa Cruz,Santa Cruz,CA
95066,Scotts Valley,Santa Cruz,CA
95067,Scotts Valley,Santa Cruz,CA
95070,Saratoga,Santa Clara,CA
95071,Saratoga,Santa Clara,CA
95073,Soquel,Santa Cruz,CA
95075,Tres Pinos,San Benito,CA
95076,Watsonville,Santa Cruz,CA
95077,Watsonville,Santa Cruz,CA
95101,San Jose,Santa Clara,CA
95102,San Jose,Santa Clara,CA
95103,San Jose,Santa Clara,CA
95106,San Jose,Santa Clara,CA
95108,San Jose,Santa Clara,CA
95109,San Jose,Santa Clara,CA
95110,San Jose,Santa Clara,CA
95111,San Jose,Santa Clara,CA
95112,San Jose,Santa Clara,CA
95113,San Jose,Santa Clara,CA
95114,San Jose,Santa Clara,CA
95115,San Jose,Santa Clara,CA
95116,San Jose,Santa Clara,CA
95117,San Jose,Santa Clara,CA
95118,San Jose,Santa Clara,CA
95119,San Jose,Santa Clara,CA
95120,San Jose,Santa Clara,CA
95121,San Jose,Santa Clara,CA
95122,San Jose,Santa Clara,CA
95123,San Jose,Santa Clara,CA
95124,San Jose,Santa Clara,CA
95125,San Jose,Santa Clara,CA
95126,San Jose,Santa Clara,CA
95127,San Jose,Santa Clara,CA
95128,San Jose,Santa Clara,CA
95129,San Jose,Santa Clara,CA
95130,San Jose,Santa Clara,CA
95131,San Jose,Santa Clara,CA
95132,San Jose,Santa Clara,CA
95133,San Jose,Santa Clara,CA
95134,San Jose,Santa Clara,CA
95135,San Jose,Santa Clara,CA
95136,San Jose,Santa Clara,CA
95137,San Jose,Santa Clara,CA
95138,San Jose,Santa Clara,CA
95139,San Jose,Santa Clara,CA
95140,Mount Hamilton,Santa Clara,CA
95141,San Jose,Santa Clara,CA
95142,San Jose,Santa Clara,CA
95148,San Jose,Santa Clara,CA
95150,San Jose,Santa Clara,CA
95151,San Jose,Santa Clara,CA
95152,San Jose,Santa Clara,CA
95153,San Jose,Santa Clara,CA
95154,San Jose,Santa Clara,CA
95155,San Jose,Santa Clara,CA
95156,San Jose,Santa Clara,CA
95157,San Jose,Santa Clara,CA
95158,San Jose,Santa Clara,CA
95159,San Jose,Santa Clara,CA
95160,San Jose,Santa Clara,CA
95161,San Jose,Santa Clara,CA
95164,San Jose,Santa Clara,CA
95170,San Jose,Santa Clara,CA
95171,San Jose,Santa Clara,CA
95172,San Jose,Santa Clara,CA
95173,San Jose,Santa Clara,CA
95190,San Jose,Santa Clara,CA
95191,San Jose,Santa Clara,CA
95192,San Jose,Santa Clara,CA
95193,San Jose,Santa Clara,CA
95194,San Jose,Santa Clara,CA
95196,San Jose,Santa Clara,CA
95201,Stockton,San Joaquin,CA
95202,Stockton,San Joaquin,CA
95203,Stockton,San Joaquin,CA
95204,Stockton,San Joaquin,CA
95205,Stockton,San Joaquin,CA
95206,Stockton,San Joaquin,CA
95207,Stockton,San Joaquin,CA
95208,Stockton,San Joaquin,CA
95209,Stockton,San Joaquin,CA
95210,Stockton,San Joaquin,CA
95211,Stockton,San Joaquin,CA
95212,Stockton,San Joaquin,CA
95213,Stockton,San Joaquin,CA
95215,Stockton,San Joaquin,CA
95219,Stockton,San Joaquin,CA
95220,Acampo,San Joaquin,CA
95221,Altaville,Calaveras,CA
95222,Angels Camp,Calaveras,CA
95223,Arnold,Calaveras,CA
95224,Avery,Calaveras,CA
95225,Burson,Calaveras,CA
95226,Campo Seco,Calaveras,CA
95227,Clements,San Joaquin,CA
95228,Copperopolis,Calaveras,CA
95229,Douglas Flat,Calaveras,CA
95230,Farmington,San Joaquin,CA
95231,French Camp,San Joaquin,CA
95232,Glencoe,Calaveras,CA
95233,Hathaway Pines,Calaveras,CA
95234,Holt,San Joaquin,CA
95236,Linden,San Joaquin,CA
95237,Lockeford,San Joaquin,CA
95240,Lodi,San Joaquin,CA
95241,Lodi,San Joaquin,CA
95242,Lodi,San Joaquin,CA
95245,Mokelumne Hill,Calaveras,CA
95246,Mountain Ranch,Calaveras,CA
95247,Murphys,Calaveras,CA
95248,Rail Road Flat,Calaveras,CA
95249,San Andreas,Calaveras,CA
95250,Sheep Ranch,Calaveras,CA
95251,Vallecito,Calaveras,CA
95252,Valley Springs,Calaveras,CA
95253,Victor,San Joaquin,CA
95254,Wallace,Calaveras,CA
95255,West Point,Calaveras,CA
95257,Wilseyville,Calaveras,CA
95258,Woodbridge,San Joaquin,CA
95267,Stockton,San Joaquin,CA
95269,Stockton,San Joaquin,CA
95290,Stockton,San Joaquin,CA
95296,Lyoth,San Joaquin,CA
95297,Stockton,San Joaquin,CA
95298,Stockton,San Joaquin,CA
95301,Atwater,Merced,CA
95303,Ballico,Merced,CA
95304,Tracy,San Joaquin,CA
95305,Big Oak Flat,Tuolumne,CA
95306,Catheys Valley,Mariposa,CA
95307,Ceres,Stanislaus,CA
95309,Chinese Camp,Tuolumne,CA
95310,Columbia,Tuolumne,CA
95311,Coulterville,Mariposa,CA
95312,Cressey,Merced,CA
95313,Crows Landing,Stanislaus,CA
95314,Dardanelle,Tuolumne,CA
95315,Delhi,Merced,CA
95316,Denair,Stanislaus,CA
95317,El Nido,Merced,CA
95318,El Portal,Mariposa,CA
95319,Empire,Stanislaus,CA
95320,Escalon,San Joaquin,CA
95321,Groveland,Tuolumne,CA
95322,Gustine,Merced,CA
95323,Hickman,Stanislaus,CA
95324,Hilmar,Merced,CA
95325,Hornitos,Mariposa,CA
95326,Hughson,Stanislaus,CA
95327,Jamestown,Tuolumne,CA
95328,Keyes,Stanislaus,CA
95329,La Grange,Stanislaus,CA
95330,Lathrop,San Joaquin,CA
95333,Le Grand,Merced,CA
95334,Livingston,Merced,CA
95335,Long Barn,Tuolumne,CA
95336,Manteca,San Joaquin,CA
95337,Manteca,San Joaquin,CA
95338,Mariposa,Mariposa,CA
95340,Merced,Merced,CA
95341,Merced,Merced,CA
95342,Atwater,Merced,CA
95343,Merced,Merced,CA
95344,Merced,Merced,CA
95345,Midpines,Mariposa,CA
95346,Mi Wuk Village,Tuolumne,CA
95347,Moccasin,Tuolumne,CA
95348,Merced,Merced,CA
95350,Modesto,Stanislaus,CA
95351,Modesto,Stanislaus,CA
95352,Modesto,Stanislaus,CA
95353,Modesto,Stanislaus,CA
95354,Modesto,Stanislaus,CA
95355,Modesto,Stanislaus,CA
95356,Modesto,Stanislaus,CA
95357,Modesto,Stanislaus,CA
95358,Modesto,Stanislaus,CA
95360,Newman,Stanislaus,CA
95361,Oakdale,Stanislaus,CA
95363,Patterson,Stanislaus,CA
95364,Pinecrest,Tuolumne,CA
95365,Planada,Merced,CA
95366,Ripon,San Joaquin,CA
95367,Riverbank,Stanislaus,CA
95368,Salida,Stanislaus,CA
95369,Snelling,Merced,CA
95370,Sonora,Tuolumne,CA
95372,Soulsbyville,Tuolumne,CA
95373,Standard,Tuolumne,CA
95374,Stevinson,Merced,CA
95375,Strawberry,Tuolumne,CA
95376,Tracy,San Joaquin,CA
95377,Tracy,San Joaquin,CA
95378,Tracy,San Joaquin,CA
95379,Tuolumne,Tuolumne,CA
95380,Turlock,Stanislaus,CA
95381,Turlock,Stanislaus,CA
95382,Turlock,Stanislaus,CA
95383,Twain Harte,Tuolumne,CA
95385,Vernalis,San Joaquin,CA
95386,Waterford,Stanislaus,CA
95387,Westley,Stanislaus,CA
95388,Winton,Merced,CA
95389,Yosemite National Park,Mariposa,CA
95390,Riverbank,Stanislaus,CA
95391,Tracy,San Joaquin,CA
95397,Modesto,Stanislaus,CA
95401,Santa Rosa,Sonoma,CA
95402,Santa Rosa,Sonoma,CA
95403,Santa Rosa,Sonoma,CA
95404,Santa Rosa,Sonoma,CA
95405,Santa Rosa,Sonoma,CA
95406,Santa Rosa,Sonoma,CA
95407,Santa Rosa,Sonoma,CA
95408,Santa Rosa,Sonoma,CA
95409,Santa Rosa,Sonoma,CA
95410,Albion,Mendocino,CA
95412,Annapolis,Sonoma,CA
95415,Boonville,Mendocino,CA
95416,Boyes Hot Springs,Sonoma,CA
95417,Branscomb,Mendocino,CA
95418,Calpella,Mendocino,CA
95419,Camp Meeker,Sonoma,CA
95420,Caspar,Mendocino,CA
95421,Cazadero,Sonoma,CA
95422,Clearlake,Lake,CA
95423,Clearlake Oaks,Lake,CA
95424,Clearlake Park,Lake,CA
95425,Cloverdale,Sonoma,CA
95426,Cobb,Lake,CA
95427,Comptche,Mendocino,CA
95428,Covelo,Mendocino,CA
95429,Dos Rios,Mendocino,CA
95430,Duncans Mills,Sonoma,CA
95431,Eldridge,Sonoma,CA
95432,Elk,Mendocino,CA
95433,El Verano,Sonoma,CA
95435,Finley,Lake,CA
95436,Forestville,Sonoma,CA
95437,Fort Bragg,Mendocino,CA
95439,Fulton,Sonoma,CA
95441,Geyserville,Sonoma,CA
95442,Glen Ellen,Sonoma,CA
95443,Glenhaven,Lake,CA
95444,Graton,Sonoma,CA
95445,Gualala,Mendocino,CA
95446,Guerneville,Sonoma,CA
95448,Healdsburg,Sonoma,CA
95449,Hopland,Mendocino,CA
95450,Jenner,Sonoma,CA
95451,Kelseyville,Lake,CA
95452,Kenwood,Sonoma,CA
95453,Lakeport,Lake,CA
95454,Laytonville,Mendocino,CA
95456,Littleriver,Mendocino,CA
95457,Lower Lake,Lake,CA
95458,Lucerne,Lake,CA
95459,Manchester,Mendocino,CA
95460,Mendocino,Mendocino,CA
95461,Middletown,Lake,CA
95462,Monte Rio,Sonoma,CA
95463,Navarro,Mendocino,CA
95464,Nice,Lake,CA
95465,Occidental,Sonoma,CA
95466,Philo,Mendocino,CA
95467,Hidden Valley Lake,Lake,CA
95468,Point Arena,Mendocino,CA
95469,Potter Valley,Mendocino,CA
95470,Redwood Valley,Mendocino,CA
95471,Rio Nido,Sonoma,CA
95472,Sebastopol,Sonoma,CA
95473,Sebastopol,Sonoma,CA
95476,Sonoma,Sonoma,CA
95480,Stewarts Point,Sonoma,CA
95481,Talmage,Mendocino,CA
95482,Ukiah,Mendocino,CA
95485,Upper Lake,Lake,CA
95486,Villa Grande,Sonoma,CA
95487,Vineburg,Sonoma,CA
95488,Westport,Mendocino,CA
95490,Willits,Mendocino,CA
95492,Windsor,Sonoma,CA
95493,Witter Springs,Lake,CA
95494,Yorkville,Mendocino,CA
95497,The Sea Ranch,Sonoma,CA
95501,Eureka,Humboldt,CA
95502,Eureka,Humboldt,CA
95503,Eureka,Humboldt,CA
95511,Alderpoint,Humboldt,CA
95514,Blocksburg,Humboldt,CA
95518,Arcata,Humboldt,CA
95519,Mckinleyville,Humboldt,CA
95521,Arcata,Humboldt,CA
95524,Bayside,Humboldt,CA
95525,Blue Lake,Humboldt,CA
95526,Bridgeville,Humboldt,CA
95527,Burnt Ranch,Trinity,CA
95528,Carlotta,Humboldt,CA
95531,Crescent City,Del Norte,CA
95532,Crescent City,Del Norte,CA
95534,Cutten,Humboldt,CA
95536,Ferndale,Humboldt,CA
95537,Fields Landing,Humboldt,CA
95538,Fort Dick,Del Norte,CA
95540,Fortuna,Humboldt,CA
95542,Garberville,Humboldt,CA
95543,Gasquet,Del Norte,CA
95545,Honeydew,Humboldt,CA
95546,Hoopa,Humboldt,CA
95547,Hydesville,Humboldt,CA
95548,Klamath,Del Norte,CA
95549,Kneeland,Humboldt,CA
95550,Korbel,Humboldt,CA
95551,Loleta,Humboldt,CA
95552,Mad River,Trinity,CA
95553,Miranda,Humboldt,CA
95554,Myers Flat,Humboldt,CA
95555,Orick,Humboldt,CA
95556,Orleans,Humboldt,CA
95558,Petrolia,Humboldt,CA
95559,Phillipsville,Humboldt,CA
95560,Redway,Humboldt,CA
95562,Rio Dell,Humboldt,CA
95563,Salyer,Trinity,CA
95564,Samoa,Humboldt,CA
95565,Scotia,Humboldt,CA
95567,Smith River,Del Norte,CA
95568,Somes Bar,Siskiyou,CA
95569,Redcrest,Humboldt,CA
95570,Trinidad,Humboldt,CA
95571,Weott,Humboldt,CA
95573,Willow Creek,Humboldt,CA
95585,Leggett,Mendocino,CA
95587,Piercy,Mendocino,CA
95589,Whitethorn,Humboldt,CA
95595,Zenia,Trinity,CA
95601,Amador City,Amador,CA
95602,Auburn,Placer,CA
95603,Auburn,Placer,CA
95604,Auburn,Placer,CA
95605,West Sacramento,Yolo,CA
95606,Brooks,Yolo,CA
95607,Capay,Yolo,CA
95608,Carmichael,Sacramento,CA
95609,Carmichael,Sacramento,CA
95610,Citrus Heights,Sacramento,CA
95611,Citrus Heights,Sacramento,CA
95612,Clarksburg,Yolo,CA
95613,Coloma,El Dorado,CA
95614,Cool,El Dorado,CA
95615,Courtland,Sacramento,CA
95616,Davis,Yolo,CA
95617,Davis,Yolo,CA
95618,El Macero,Yolo,CA
95619,Diamond Springs,El Dorado,CA
95620,Dixon,Solano,CA
95621,Citrus Heights,Sacramento,CA
95623,El Dorado,El Dorado,CA
95624,Elk Grove,Sacramento,CA
95625,Elmira,Solano,CA
95626,Elverta,Sacramento,CA
95627,Esparto,Yolo,CA
95628,Fair Oaks,Sacramento,CA
95629,Fiddletown,Amador,CA
95630,Folsom,Sacramento,CA
95631,Foresthill,Placer,CA
95632,Galt,Sacramento,CA
95633,Garden Valley,El Dorado,CA
95634,Georgetown,El Dorado,CA
95635,Greenwood,El Dorado,CA
95636,Grizzly Flats,El Dorado,CA
95637,Guinda,Yolo,CA
95638,Herald,Sacramento,CA
95639,Hood,Sacramento,CA
95640,Ione,Amador,CA
95641,Isleton,Sacramento,CA
95642,Jackson,Amador,CA
95644,Kit Carson,Amador,CA
95645,Knights Landing,Yolo,CA
95646,Kirkwood,Alpine,CA
95648,Lincoln,Placer,CA
95650,Loomis,Placer,CA
95651,Lotus,El Dorado,CA
95652,Mcclellan,Sacramento,CA
95653,Madison,Yolo,CA
95654,Martell,Amador,CA
95655,Mather,Sacramento,CA
95656,Mount Aukum,El Dorado,CA
95658,Newcastle,Placer,CA
95659,Nicolaus,Sutter,CA
95660,North Highlands,Sacramento,CA
95661,Roseville,Placer,CA
95662,Orangevale,Sacramento,CA
95663,Penryn,Placer,CA
95664,Pilot Hill,El Dorado,CA
95665,Pine Grove,Amador,CA
95666,Pioneer,Amador,CA
95667,Placerville,El Dorado,CA
95668,Pleasant Grove,Sutter,CA
95669,Plymouth,Amador,CA
95670,Rancho Cordova,Sacramento,CA
95671,Represa,Sacramento,CA
95672,Rescue,El Dorado,CA
95673,Rio Linda,Sacramento,CA
95674,Rio Oso,Sutter,CA
95675,River Pines,Amador,CA
95676,Robbins,Sutter,CA
95677,Rocklin,Placer,CA
95678,Roseville,Placer,CA
95679,Rumsey,Yolo,CA
95680,Ryde,Sacramento,CA
95681,Sheridan,Placer,CA
95682,Shingle Springs,El Dorado,CA
95683,Sloughhouse,Sacramento,CA
95684,Somerset,El Dorado,CA
95685,Sutter Creek,Amador,CA
95686,Thornton,San Joaquin,CA
95687,Vacaville,Solano,CA
95688,Vacaville,Solano,CA
95689,Volcano,Amador,CA
95690,Walnut Grove,Sacramento,CA
95691,West Sacramento,Yolo,CA
95692,Wheatland,Yuba,CA
95693,Wilton,Sacramento,CA
95694,Winters,Yolo,CA
95695,Woodland,Yolo,CA
95696,Vacaville,Solano,CA
95697,Yolo,Yolo,CA
95698,Zamora,Yolo,CA
95699,Drytown,Amador,CA
95701,Alta,Placer,CA
95703,Applegate,Placer,CA
95709,Camino,El Dorado,CA
95712,Chicago Park,Nevada,CA
95713,Colfax,Placer,CA
95714,Dutch Flat,Placer,CA
95715,Emigrant Gap,Placer,CA
95717,Gold Run,Placer,CA
95720,Kyburz,El Dorado,CA
95721,Echo Lake,El Dorado,CA
95722,Meadow Vista,Placer,CA
95724,Norden,Nevada,CA
95726,Pollock Pines,El Dorado,CA
95728,Soda Springs,Nevada,CA
95735,Twin Bridges,El Dorado,CA
95736,Weimar,Placer,CA
95741,Rancho Cordova,Sacramento,CA
95742,Rancho Cordova,Sacramento,CA
95743,Rancho Cordova,Sacramento,CA
95746,Granite Bay,Placer,CA
95747,Roseville,Placer,CA
95757,Elk Grove,Sacramento,CA
95758,Elk Grove,Sacramento,CA
95759,Elk Grove,Sacramento,CA
95762,El Dorado Hills,El Dorado,CA
95763,Folsom,Sacramento,CA
95765,Rocklin,Placer,CA
95776,Woodland,Yolo,CA
95798,West Sacramento,Yolo,CA
95799,West Sacramento,Yolo,CA
95811,Sacramento,Sacramento,CA
95812,Sacramento,Sacramento,CA
95813,Sacramento,Sacramento,CA
95814,Sacramento,Sacramento,CA
95815,Sacramento,Sacramento,CA
95816,Sacramento,Sacramento,CA
95817,Sacramento,Sacramento,CA
95818,Sacramento,Sacramento,CA
95819,Sacramento,Sacramento,CA
95820,Sacramento,Sacramento,CA
95821,Sacramento,Sacramento,CA
95822,Sacramento,Sacramento,CA
95823,Sacramento,Sacramento,CA
95824,Sacramento,Sacramento,CA
95825,Sacramento,Sacramento,CA
95826,Sacramento,Sacramento,CA
95827,Sacramento,Sacramento,CA
95828,Sacramento,Sacramento,CA
95829,Sacramento,Sacramento,CA
95830,Sacramento,Sacramento,CA
95831,Sacramento,Sacramento,CA
95832,Sacramento,Sacramento,CA
95833,Sacramento,Sacramento,CA
95834,Sacramento,Sacramento,CA
95835,Sacramento,Sacramento,CA
95836,Sacramento,Sacramento,CA
95837,Sacramento,Sacramento,CA
95838,Sacramento,Sacramento,CA
95840,Sacramento,Sacramento,CA
95841,Sacramento,Sacramento,CA
95842,Sacramento,Sacramento,CA
95843,Antelope,Sacramento,CA
95851,Sacramento,Sacramento,CA
95852,Sacramento,Sacramento,CA
95853,Sacramento,Sacramento,CA
95857,Sacramento,Sacramento,CA
95860,Sacramento,Sacramento,CA
95864,Sacramento,Sacramento,CA
95865,Sacramento,Sacramento,CA
95866,Sacramento,Sacramento,CA
95867,Sacramento,Sacramento,CA
95873,Sacramento,Sacramento,CA
95887,Sacramento,Sacramento,CA
95894,Sacramento,Sacramento,CA
95899,Sacramento,Sacramento,CA
95901,Marysville,Yuba,CA
95903,Beale Afb,Yuba,CA
95910,Alleghany,Sierra,CA
95912,Arbuckle,Colusa,CA
95913,Artois,Glenn,CA
95914,Bangor,Butte,CA
95915,Belden,Plumas,CA
95916,Berry Creek,Butte,CA
95917,Biggs,Butte,CA
95918,Browns Valley,Yuba,CA
95919,Brownsville,Yuba,CA
95920,Butte City,Glenn,CA
95922,Camptonville,Yuba,CA
95923,Canyondam,Plumas,CA
95924,Cedar Ridge,Nevada,CA
95925,Challenge,Yuba,CA
95926,Chico,Butte,CA
95927,Chico,Butte,CA
95928,Chico,Butte,CA
95929,Chico,Butte,CA
95930,Clipper Mills,Butte,CA
95931,College City,Colusa,CA
95932,Colusa,Colusa,CA
95934,Crescent Mills,Plumas,CA
95935,Dobbins,Yuba,CA
95936,Downieville,Sierra,CA
95937,Dunnigan,Yolo,CA
95938,Durham,Butte,CA
95939,Elk Creek,Glenn,CA
95940,Feather Falls,Butte,CA
95941,Forbestown,Butte,CA
95942,Forest Ranch,Butte,CA
95943,Glenn,Glenn,CA
95944,Goodyears Bar,Sierra,CA
95945,Grass Valley,Nevada,CA
95946,Penn Valley,Nevada,CA
95947,Greenville,Plumas,CA
95948,Gridley,Butte,CA
95949,Grass Valley,Nevada,CA
95950,Grimes,Colusa,CA
95951,Hamilton City,Glenn,CA
95953,Live Oak,Sutter,CA
95954,Magalia,Butte,CA
95955,Maxwell,Colusa,CA
95956,Meadow Valley,Plumas,CA
95957,Meridian,Sutter,CA
95958,Nelson,Butte,CA
95959,Nevada City,Nevada,CA
95960,North San Juan,Nevada,CA
95961,Olivehurst,Yuba,CA
95962,Oregon House,Yuba,CA
95963,Orland,Glenn,CA
95965,Oroville,Butte,CA
95966,Oroville,Butte,CA
95967,Paradise,Butte,CA
95968,Palermo,Butte,CA
95969,Paradise,Butte,CA
95970,Princeton,Colusa,CA
95971,Quincy,Plumas,CA
95972,Rackerby,Yuba,CA
95973,Chico,Butte,CA
95974,Richvale,Butte,CA
95975,Rough And Ready,Nevada,CA
95976,Chico,Butte,CA
95977,Smartville,Yuba,CA
95978,Stirling City,Butte,CA
95979,Stonyford,Colusa,CA
95980,Storrie,Plumas,CA
95981,Strawberry Valley,Yuba,CA
95982,Sutter,Sutter,CA
95983,Taylorsville,Plumas,CA
95984,Twain,Plumas,CA
95986,Washington,Nevada,CA
95987,Williams,Colusa,CA
95988,Willows,Glenn,CA
95991,Yuba City,Sutter,CA
95992,Yuba City,Sutter,CA
95993,Yuba City,Sutter,CA
96001,Redding,Shasta,CA
96002,Redding,Shasta,CA
96003,Redding,Shasta,CA
96006,Adin,Modoc,CA
96007,Anderson,Shasta,CA
96008,Bella Vista,Shasta,CA
96009,Bieber,Lassen,CA
96010,Big Bar,Trinity,CA
96011,Big Bend,Shasta,CA
96013,Burney,Shasta,CA
96014,Callahan,Siskiyou,CA
96015,Canby,Modoc,CA
96016,Cassel,Shasta,CA
96017,Castella,Shasta,CA
96019,Shasta Lake,Shasta,CA
96020,Chester,Plumas,CA
96021,Corning,Tehama,CA
96022,Cottonwood,Shasta,CA
96023,Dorris,Siskiyou,CA
96024,Douglas City,Trinity,CA
96025,Dunsmuir,Siskiyou,CA
96027,Etna,Siskiyou,CA
96028,Fall River Mills,Shasta,CA
96029,Flournoy,Tehama,CA
96031,Forks Of Salmon,Siskiyou,CA
96032,Fort Jones,Siskiyou,CA
96033,French Gulch,Shasta,CA
96034,Gazelle,Siskiyou,CA
96035,Gerber,Tehama,CA
96037,Greenview,Siskiyou,CA
96038,Grenada,Siskiyou,CA
96039,Happy Camp,Siskiyou,CA
96040,Hat Creek,Shasta,CA
96041,Hayfork,Trinity,CA
96044,Hornbrook,Siskiyou,CA
96046,Hyampom,Trinity,CA
96047,Igo,Shasta,CA
96048,Junction City,Trinity,CA
96049,Redding,Shasta,CA
96050,Klamath River,Siskiyou,CA
96051,Lakehead,Shasta,CA
96052,Lewiston,Trinity,CA
96054,Lookout,Modoc,CA
96055,Los Molinos,Tehama,CA
96056,Mcarthur,Shasta,CA
96057,Mccloud,Siskiyou,CA
96058,Macdoel,Siskiyou,CA
96059,Manton,Tehama,CA
96061,Mill Creek,Tehama,CA
96062,Millville,Shasta,CA
96063,Mineral,Tehama,CA
96064,Montague,Siskiyou,CA
96065,Montgomery Creek,Shasta,CA
96067,Mount Shasta,Siskiyou,CA
96068,Nubieber,Lassen,CA
96069,Oak Run,Shasta,CA
96070,Obrien,Shasta,CA
96071,Old Station,Shasta,CA
96073,Palo Cedro,Shasta,CA
96074,Paskenta,Tehama,CA
96075,Paynes Creek,Tehama,CA
96076,Platina,Shasta,CA
96078,Proberta,Tehama,CA
96079,Shasta Lake,Shasta,CA
96080,Red Bluff,Tehama,CA
96084,Round Mountain,Shasta,CA
96085,Scott Bar,Siskiyou,CA
96086,Seiad Valley,Siskiyou,CA
96087,Shasta,Shasta,CA
96088,Shingletown,Shasta,CA
96089,Shasta Lake,Shasta,CA
96090,Tehama,Tehama,CA
96091,Trinity Center,Trinity,CA
96092,Vina,Tehama,CA
96093,Weaverville,Trinity,CA
96094,Weed,Siskiyou,CA
96095,Whiskeytown,Shasta,CA
96096,Whitmore,Shasta,CA
96097,Yreka,Siskiyou,CA
96099,Redding,Shasta,CA
96101,Alturas,Modoc,CA
96103,Blairsden-Graeagle,Plumas,CA
96104,Cedarville,Modoc,CA
96105,Chilcoot,Plumas,CA
96106,Clio,Plumas,CA
96107,Coleville,Mono,CA
96108,Davis Creek,Modoc,CA
96109,Doyle,Lassen,CA
96110,Eagleville,Modoc,CA
96111,Floriston,Nevada,CA
96112,Fort Bidwell,Modoc,CA
96113,Herlong,Lassen,CA
96114,Janesville,Lassen,CA
96115,Lake City,Modoc,CA
96116,Likely,Modoc,CA
96117,Litchfield,Lassen,CA
96118,Loyalton,Sierra,CA
96119,Madeline,Lassen,CA
96120,Markleeville,Alpine,CA
96121,Milford,Lassen,CA
96122,Portola,Plumas,CA
96123,Ravendale,Lassen,CA
96124,Calpine,Sierra,CA
96125,Sierra City,Sierra,CA
96126,Sierraville,Sierra,CA
96127,Susanville,Lassen,CA
96128,Standish,Lassen,CA
96129,Beckwourth,Plumas,CA
96130,Susanville,Lassen,CA
96132,Termo,Lassen,CA
96133,Topaz,Mono,CA
96134,Tulelake,Siskiyou,CA
96135,Vinton,Plumas,CA
96136,Wendel,Lassen,CA
96137,Westwood,Lassen,CA
96140,Carnelian Bay,Placer,CA
96141,Homewood,Placer,CA
96142,Tahoma,El Dorado,CA
96143,Kings Beach,Placer,CA
96145,Tahoe City,Placer,CA
96146,Olympic Valley,Placer,CA
96148,Tahoe Vista,Placer,CA
96150,South Lake Tahoe,El Dorado,CA
96151,South Lake Tahoe,El Dorado,CA
96152,South Lake Tahoe,El Dorado,CA
96154,South Lake Tahoe,El Dorado,CA
96155,South Lake Tahoe,El Dorado,CA
96156,South Lake Tahoe,El Dorado,CA
96157,South Lake Tahoe,El Dorado,CA
96158,South Lake Tahoe,El Dorado,CA
96160,Truckee,Nevada,CA
96161,Truckee,Nevada,CA
96162,Truckee,Nevada,CA
96201,Apo,APO,AP
96548,Apo,APO,AP
96701,Aiea,Honolulu,HI
96708,Haiku,Maui,HI
96720,Hilo,Hawaii,HI
96730,Kaaawa,Honolulu,HI
96734,Kailua,Honolulu,HI
96740,Kailua Kona,Hawaii,HI
96753,Kihei,Maui,HI
96754,Kilauea,Kauai,HI
96761,Lahaina,Maui,HI
96766,Lihue,Kauai,HI
96797,Waipahu,Honolulu,HI
96817,Honolulu,Honolulu,HI
96822,Honolulu,Honolulu,HI
96826,Honolulu,Honolulu,HI
96932,Hagatna,Guam,GU
98370,Poulsbo,Kitsap,WA
98465,Tacoma,Pierce,WA
99353,Richland,Benton,WA
99502,Anchorage,Anchorage,AK
99515,Anchorage,Anchorage,AK
99567,Chugiak,Anchorage,AK
99801,Juneau,Juneau,AK
99802,Juneau,Juneau,AK
99833,Petersburg,Petersburg,AK
99901,Ketchikan,Ketchikan Gateway,AK
